OBJECTID,AUN,SCHOOL_NUM,LOCATION_ID,SCHOOL_NAME,SCHOOL_NAME_LABEL,STREET_ADDRESS,ZIP_CODE,PHONE_NUMBER,ACTIVE,GRADE_LEVEL,GRADE_ORG,ENROLLMENT,TYPE,TYPE_SPECIFIC
1,,,3327,LABORATORY CHARTER SCHOOL OF COMMUNICATIONS/DESIGN (ANNEX),LABORATORY CHARTER SCHOOL OF COMMUNICATIONS/DESIGN (ANNEX),5339 LEBANON AVE,19131,(215) 877-9880,O,ELEMENTARY/MIDDLE,5-8,,2,CHARTER
2,,,3377,LABORATORY CHARTER SCHOOL OF COMMUNICATIONS/DESIGN (ANNEX),LABORATORY CHARTER SCHOOL OF COMMUNICATIONS/DESIGN (ANNEX),5901 WOODBINE AVE,19131,(215) 879-1800,O,ELEMENTARY SCHOOL,K-4,,2,CHARTER
3,226515302,,,OUR MOTHER OF CONSOLATION,OUR MOTHER CONSOLATION,7-29 E CHESTNUT HILL AVE,19118,(215) 247-1060,O,ELEMENTARY/MIDDLE,PREK-8,,3,ARCHDIOCESE
4,226512152,,,HOLY CROSS SCHOOL,HOLY CROSS SCHOOL,148-54 E MOUNT AIRY AVE,19119,(215) 242-0414,O,ELEMENTARY/MIDDLE,K-8,,3,ARCHDIOCESE
5,226518092,,,ST JEROME SCHOOL,ST JEROME SCHOOL,2950 HOLME AVE,19136,(215) 624-0637,O,ELEMENTARY/MIDDLE,K-8,,3,ARCHDIOCESE
6,226515552,,,RESURRECTION REGIONAL CATHOLIC SCHOOL,RESURRECTION REGIONAL CATHOLIC SCHOOL,2020 SHELMIRE AVE.,19152,(215) 742-1127,O,ELEMENTARY/MIDDLE,PREK-8,,3,ARCHDIOCESE
7,226511602,,,FATHER JUDGE HIGH SCHOOL,FATHER JUDGE HIGH SCHOOL,3301 SOLLY AVE,19136,(215) 338-9494,O,HIGH SCHOOL,9-12,,3,ARCHDIOCESE
8,226517902,,,ST HELENA INCARNATION REGIONAL CATHOLIC SCHOOL,ST HELENA SCHOOL,6101 N 5TH ST,19120,(215) 549-2947,O,ELEMENTARY/MIDDLE,K-8,,3,ARCHDIOCESE
9,226519282,,,ST ROSE OF LIMA SCHOOL,ST ROSE OF LIMA SCHOOL,1508 N  WANAMAKER ST,19131,(215) 473-6030,O,ELEMENTARY/MIDDLE,PREK-8,,3,ARCHDIOCESE
10,226512702,,,IMMACULATE HEART OF MARY SCHOOL,IMMACULATE HEART OF MARY SCHOOL,815-23 CATHEDRAL RD,19128,(215) 482-2029,O,ELEMENTARY/MIDDLE,PREK-8,,3,ARCHDIOCESE
11,226516302,,,ST ATHANASIUS IMMACULATE CONCEPTION SCHOOL,ST ATHANASIUS IMMACULATE CONCEPTION SCHOOL,7105 LIMEKILN PIKE,19138,(215) 424-5045,O,ELEMENTARY/MIDDLE,PREK-8,,3,ARCHDIOCESE
12,226517052,,,ST CECILIA SCHOOL,ST CECILIA SCHOOL,535 RHAWN ST,19111,(215) 725-8588,O,ELEMENTARY/MIDDLE,K-8,,3,ARCHDIOCESE
13,226517252,,,ST MARTIN DE PORRES SCHOOL,ST MARTIN DE PORRES SCHOOL,2300-36 W LEHIGH AVE,19132,(215) 223-6872,O,ELEMENTARY/MIDDLE,K-8,,3,ARCHDIOCESE
14,226514552,,,OUR LADY OF PORT RICHMOND SCHOOL,OUR LADY OF PORT RICHMOND SCHOOL,2639 E ALLEGHENY AVE,19134,(215) 739-1920,O,ELEMENTARY/MIDDLE,PREK-8,,3,ARCHDIOCESE
15,226516202,,,ST ANSELM ELEMENTARY SCHOOL,ST ANSELM ELEMENTARY SCHOOL,12656 DUNKS FERRY RD,19154,(215) 632-1133,O,ELEMENTARY/MIDDLE,PREK-8,,3,ARCHDIOCESE
16,226517152,,,ST CHRISTOPHER SCHOOL,ST CHRISTOPHER SCHOOL,13301 PROCTOR RD,19116,(215) 673-5787,O,ELEMENTARY/MIDDLE,PREK-8,,3,ARCHDIOCESE
17,226510452,,,ARCHBISHOP RYAN HIGH SCHOOL,ARCHBISHOP RYAN HIGH SCHOOL,11201 ACADEMY RD,19154,(215) 637-1800,O,HIGH SCHOOL,9-12,,3,ARCHDIOCESE
18,226519022,,,ST MONICA SENIOR SCHOOL,ST MONICA SENIOR SCHOOL,2500 S 16TH ST,19145,(215) 467-5338,O,ELEMENTARY/MIDDLE,6-8,,3,ARCHDIOCESE
19,226514102,,,MERCY CAREER AND TECHNICAL HIGH SCHOOL,MERCY VOCATIONAL HIGH SCHOOL,2901 W ALLEGHENY AVE,19129,(215) 226-1225 ,O,HIGH SCHOOL,9-12,,3,ARCHDIOCESE
20,226518662,,,ST MALACHY SCHOOL,ST MALACHY SCHOOL,1415 N 11TH ST,19122,(215) 232-0696,O,ELEMENTARY/MIDDLE,K-8,,3,ARCHDIOCESE
21,226518752,,,ST MARTIN OF TOURS SCHOOL,ST MARTIN OF TOURS SCHOOL,5400 E ROOSEVELT BLV,19124,(215) 533-3050,O,ELEMENTARY/MIDDLE,PREK-8,,3,ARCHDIOCESE
22,226518332,,,ST KATHERINE SIENA SCHOOL,ST KATHERINE SIENA SCHOOL,9720-88 FRANKFORD AVE,19114,(215) 637-2181,O,ELEMENTARY/MIDDLE,K-8,,3,ARCHDIOCESE
23,226518062,,,OUR MOTHER OF SORROWS/ST IGNATIUS OF LOYOLA SCHOOL,OUR MOTHER OF SORROWS/ST IGNATIUS OF LOYOLA SCHOOL,632-44 N 43RD ST,19104,(215) 222-3626,O,ELEMENTARY/MIDDLE,PREK-8,,3,PRIVATE
24,126515001,,8320,JOHN HANCOCK DEMONSTRATION MIDDLE SCHOOL- LABRUM CAMPUS,"LA BRUM, GENERAL J. HARRY",10800 HAWLEY ST.,19154,(215) 400-3122,O,MIDDLE SCHOOL,6-8,,1,DISTRICT
25,226516452,,,ST BARNABAS CATHOLIC SCHOOL,ST. BARNABAS CATHOLIC SCHOOL,6334 BUIST AVE,19142,(215) 729-3603,O,ELEMENTARY/MIDDLE,PREK-8,,3,ARCHDIOCESE
26,226517702,,,ST GABRIEL SCHOOL,ST GABRIEL SCHOOL,1432 S  29TH ST,19146,(215) 468-7230,O,ELEMENTARY/MIDDLE,PREK-8,,3,ARCHDIOCESE
27,226517302,,,ST DOMINIC SCHOOL,ST DOMINIC SCHOOL,8500 FRANKFORD AVE,19136,(215) 333-6703,O,ELEMENTARY/MIDDLE,PREK-8,,3,ARCHDIOCESE
28,226517552,,,ST FRANCIS DESALES SCHOOL,ST FRANCIS DESALES SCHOOL,917 S 47TH ST,19143,(215) 387-1749,O,ELEMENTARY/MIDDLE,K-8,,3,ARCHDIOCESE
29,226518692,,,SS JOHN NEUMANN AND MARIA GORETTI CATHOLIC HIGH SCHOOL,SS JOHN NEUMANN AND MARIA GORETTI CATHOLIC HIGH SCHOOL,1736 S 10TH ST,19148,(215) 465-8437,O,HIGH SCHOOL,9-12,,3,ARCHDIOCESE
30,226518002,,,ST HUBERTS CATHOLIC HIGH SCHOOL,ST HUBERTS CATHOLIC HIGH SCHOOL,7320 TORRESDALE AVE,19136,(215) 624-6840,O,HIGH SCHOOL,9-12,,3,ARCHDIOCESE
31,226519752,,,VISITATION SCHOOL,VISITATION SCHOOL,300-40 E LEHIGH AVE,19125,(215) 634-7280,O,ELEMENTARY/MIDDLE,K-8,,3,ARCHDIOCESE
32,226519902,,,WEST CATHOLIC PREPARATORY HIGH SCHOOL,WEST PHILADELPHIA CATHOLIC HIGH SCHOOL,4501-17 CHESTNUT ST,19139,(215) 386-2244,O,HIGH SCHOOL,9-12,,3,ARCHDIOCESE
33,226519382,,,ST THOMAS AQUINAS SCHOOL,ST THOMAS AQUINAS SCHOOL,1616 S  17TH ST,19145,(215) 334-0878,O,ELEMENTARY/MIDDLE,PREK-8,,3,ARCHDIOCESE
34,226519222,,,ST RAYMOND OF PENAFORT SCHOOL,ST RAYMOND SCHOOL,1330 VERNON RD,19150,(215) 548-1919,O,ELEMENTARY/MIDDLE,PREK-8,,3,ARCHDIOCESE
35,226519422,,,BLESSED TRINITY REGIONAL CATHOLIC SCHOOL,BLESSED TRINITY REGIONAL CATHOLIC SCHOOL,3001 LEVICK ST,19149,(215) 338-9797,O,ELEMENTARY/MIDDLE,1-8,,3,ARCHDIOCESE
36,226519142,,,ST PETER THE APOSTLE SCHOOL,ST PETER THE APOSTLE SCHOOL,1009 N 5TH ST,19123,(215) 922-5958,O,ELEMENTARY/MIDDLE,PREK-8,,3,ARCHDIOCESE
37,226518932,,,ST MATTHEW SCHOOL,ST MATTHEW SCHOOL,3000 COTTMAN AVE,19149,(215) 333-3142,O,ELEMENTARY/MIDDLE,PREK-8,,3,ARCHDIOCESE
38,226518422,,,ST LAURENTIUS SCHOOL,ST LAURENTIUS SCHOOL,1612 E BERKS ST,19125,(215) 423-8834,O,ELEMENTARY/MIDDLE,K-8,,3,ARCHDIOCESE
39,226517352,,,ST FRANCES CABRINI REGIONAL CATHOLIC SCHOOL,ST FRANCES CABRINI,405 N 65TH ST,19151,(215) 748-2994,O,ELEMENTARY/MIDDLE,PREK-8,,3,ARCHDIOCESE
40,226519242,,,ST PIO REGIONAL CATHOLIC SCHOOL,ST PIO CATHOLIC REGIONAL SCHOOL,1826 POLLOCK ST,19145,(215) 467-5430,O,ELEMENTARY/MIDDLE,PREK-8,,3,ARCHDIOCESE
41,300518675,,,"SYLVAN LEARNING CENTER
",SYLVAN LEARNING CENTER,6537 ROOSEVELT BLVD,19149,(215) 743-6200,O,TUTORING,UNGRADED,,3,PRIVATE
42,300513270,,,DELTA SCHOOL,DELTA SCHOOL,3515 WOODHAVEN RD,19154,(215) 637-8235,O,ELEMENTARY/MIDDLE/HIGH,K-12,,3,PRIVATE
43,226514502,,,NORWOOD FONTBONNE ACADEMY,NORWOOD FONTBONNE ACADEMY,8891 GERMANTOWN AVE,19118,(215) 247-3811,O,ELEMENTARY/MIDDLE,PREK-8,,3,PRIVATE
44,226511002,,,SPRINGSIDE CHESTNUT HILL ACADEMY,SPRINGSIDE CHESTNUT HILL ACADEMY,500 W WILLOW GROVE AVE,19118,(215) 247-4700,O,ELEMENTARY/MIDDLE/HIGH,PREK-12,,3,PRIVATE
45,226515802,,,SPRINGSIDE CHESTNUT HILL ACADEMY,SPRINGSIDE CHESTNUT HILL ACADEMY,8000 CHEROKEE ST,19118,(215) 247-7200,O,ELEMENTARY/MIDDLE/HIGH,PREK-12,,3,PRIVATE
46,126513070,7557,3308,BELMONT ACADEMY CHARTER SCHOOL,BELMONT ACADEMY CHARTER SCHOOL,907 N 41ST ST,19104,(215) 396-5768,O,ELEMENTARY SCHOOL,PREK-K,,2,CHARTER
47,,,3322,PHILADELPHIA ACADEMY CHARTER SCHOOL (ANNEX),PHILADELPHIA ACADEMY CHARTER SCHOOL,1700 TOMLINSON RD,19116,(215) 673-3990,O,HIGH SCHOOL,9-12,,2,CHARTER
48,,,3374,ALLIANCE FOR PROGRESS CHARTER SCHOOL (ANNEX),ALLIANCE FOR PROGRESS CHARTER SCHOOL (ANNEX),1630-32 N 16TH ST,19121,(215) 232-4892,O,ELEMENTARY SCHOOL,4-8,,2,CHARTER
49,226510912,,,CEDAR GROVE CHRISTIAN ACADEMY LOWER SCHOOL,CEDAR GROVE CHRISTIAN ACADEMY LOWER SCHOOL,600 HELLERMAN ST,19111,(215) 725-3383,O,ELEMENTARY/MIDDLE,PREK-8,,3,PRIVATE
50,226519162,,,ST PETERS SCHOOL,ST PETERS SCHOOL,311-21 LOMBARD ST,19147,(215) 925-3963,O,ELEMENTARY/MIDDLE,PREK-8,,3,PRIVATE
51,226519672,,,TIMOTHY ACADEMY,TIMOTHY ACADEMY,5500 TABOR AVE,19120,(215) 425-8886,O,ELEMENTARY/MIDDLE,PREK-8,,3,PRIVATE
52,226518302,,,ST JOSEPH'S PREPARATORY SCHOOL,ST JOSEPH'S PREPARATORY SCHOOL,1733 W GIRARD AVE,19130,(215) 978-1950,O,HIGH SCHOOL,9-12,,3,PRIVATE
53,226515682,,,FAITH CONNECTION CHRISTIAN ACADEMY,FAITH CONNECTION CHRISTIAN ACADEMY,4524 BALTIMORE AVE,19143,(215) 592-0974,O,ELEMENTARY/MIDDLE/HIGH,K-12,,3,PRIVATE
54,326510160,,,RED LION ELEMENTARY SCHOOL,RED LION ELEMENTARY SCHOOL,256 GEIGER RD,19115,(215) 464-8623 ,O,ELEMENTARY SCHOOL,K-5,,3,PRIVATE
55,300519545,,,MERAKEY AUTISM CENTER- PHILADELPHIA,MERAKEY AUTISM CENTER- PHILADELPHIA,2900 SOUTHAMPTON RD,19154,(215) 671-5155,O,ELEMENTARY/MIDDLE/HIGH,K-12,,3,PRIVATE
56,226510232,,,ALPHA HOUSE NURSERY & KINDERGARTEN,ALPHA HOUSE NURSERY & KINDERGARTEN,9801 FRANKFORD AVE,19114,(215) 632-3366,O,KINDERGARTEN,PREK-K,,3,PRIVATE
57,226510026,,,ALL SAINTS EPISCOPAL SCHOOL,ALL SAINTS EPISCOPAL SCHOOL,9571 FRANKFORD AVE,19114,(215) 637-8788,O,KINDERGARTEN,PREK-K,,3,PRIVATE
58,300512140,,,BRIDGE SCHOOL,BRIDGE SCHOOL,1100 ADAMS AVE,19124,(215) 342-5000,O,VO-TECH,VO-TECH,,3,PRIVATE
59,226512762,,,ISLAMIC EDUCATION SCHOOL,ISLAMIC EDUCATION SCHOOL,4431-39 WALNUT ST,19104,(215) 387-8888,O,ELEMENTARY/MIDDLE,PREK-8,,3,PRIVATE
60,226512872,,,KIDS WORLD CHRISTIAN EDUCATION CENTER- WEST PHILADELPHIA,KIDS WORLD CHRISTIAN EDUCATION CENTER- WEST PHILADELPHIA,100-04 S 61ST ST,19139,(215) 474-1484,O,ELEMENTARY SCHOOL,PREK-4,,3,PRIVATE
61,226510011,,,SHEPHERDS CHRISTIAN ACADEMY,SHEPHERDS CHRISTIAN ACADEMY,6634-42 HAVERFORD AVE,19151,(215) 476-4101,O,ELEMENTARY SCHOOL,PREK-5,,3,PRIVATE
62,226512962,,,LITTLE FOOTSTEPS ISLAM INSTITUTE,LITTLE FOOTSTEPS ISLAM INSTITUTE,5314 YOCUM ST,19143,(267) 236-8559,O,ELEMENTARY/MIDDLE,PREK-8,,3,PRIVATE
63,226515412,,,WILLIAM PENN CHARTER SCHOOL,WILLIAM PENN CHARTER SCHOOL,3000 W SCHOOL HOUSE LN,19144,(215) 844-3460,O,ELEMENTARY/MIDDLE/HIGH,PREK-12,,3,PRIVATE
64,226510695,,,BEULAH BAPTIST CHRISTIAN DAY SCHOOL,BEULAH BAPTIST CHRISTIAN DAY SCHOOL,5001 SPRUCE ST,19139,(215) 747-3347,O,ELEMENTARY/MIDDLE,K-8,,3,PRIVATE
65,226511622,,,FRANKFORD FRIENDS SCHOOL,FRANKFORD FRIENDS SCHOOL,1500 ORTHODOX ST,19124,(215) 533-5368,O,ELEMENTARY/MIDDLE,PREK-8,,3,PRIVATE
66,226515532,,,PROJECT LEARN,PROJECT LEARN,6519-25 GERMANTOWN AVE,19119,(215) 438-3623,O,ELEMENTARY/MIDDLE,K-8,,3,PRIVATE
67,226512992,,,LOTUS ACADEMY,LOTUS ACADEMY,334 E HAINES ST,19144,(215) 438-7500,O,ELEMENTARY/MIDDLE,PREK-8,,3,PRIVATE
68,226510722,,,CALVARY TEMPLE CHRISTIAN ACADEMY,CALVARY TEMPLE CHRISTIAN ACADEMY,3301 S  20TH  ST,19145,(215) 462-2822,O,ELEMENTARY/MIDDLE,PREK-8,,3,PRIVATE
69,226511235,,,CROOKED PLACES MADE STRAIGHT,CROOKED PLACES MADE STRAIGHT,2617 WASHINGTON AVE,19146,(215) 339-5007,O,ELEMENTARY/MIDDLE/HIGH,K-12,,3,PRIVATE
70,226518902,,,ST MARYS INTERPAROCHIAL SCHOOL,ST MARYS INTERPAROCHIAL SCHOOL,440 LOCUST ST,19106,(215) 923-7522,O,ELEMENTARY/MIDDLE,K-8,,3,ARCHDIOCESE
71,226518722,,,ST MARTHA SCHOOL,ST MARTHA SCHOOL,11301 ACADEMY RD,19154,(215) 632-0320,O,ELEMENTARY/MIDDLE,PREK-8,,3,ARCHDIOCESE
72,226514052,,,MATERNITY BVM SCHOOL,MATERNITY BVM SCHOOL,9322 OLD BUSTLETON AVE,19115,(215) 673-0235,O,ELEMENTARY/MIDDLE,PREK-8,,3,ARCHDIOCESE
73,226514852,,,OUR LADY OF CALVARY SCHOOL,OUR LADY OF CALVARY SCHOOL,11026 KNIGHTS RD,19154,(215) 637-1648,O,ELEMENTARY/MIDDLE,PREK-8,,3,ARCHDIOCESE
74,226511102,,,CHRIST THE KING SCHOOL,CHRIST THE KING SCHOOL,3201 CHESTERFIELD RD,19114,(215) 632-1375,O,ELEMENTARY/MIDDLE,PREK-8,,3,ARCHDIOCESE
75,300511820,,,BEGINNINGS LEARNING CENTER,BEGINNINGS LEARNING CENTER,620 S 10TH ST,19147,(215) 627-3668,O,PRE-SCHOOL,PREK-K,,3,PRIVATE
76,226511232,,,JUBILEE SCHOOL,JUBILEE SCHOOL,4211 CHESTER AVE,19104,(215) 387-7592,O,ELEMENTARY SCHOOL,PREK-6,,3,PRIVATE
77,226514112,,,MILL CREEK SCHOOL,MILL CREEK SCHOOL,111 N 49TH ST,19139,(215) 471-4900 ,O,HIGH SCHOOL,7-12,,3,PRIVATE
78,226510052,,,IJOBA SHULE,IJOBA SHULE,6026 DREXEL RD,19131,(215) 747-5737,O,ELEMENTARY/MIDDLE,PREK-7,,3,PRIVATE
79,226515662,,,NORTHEAST CENTRAL CHRISTIAN SCHOOL,NORTHEAST CENTRAL CHRISTIAN SCHOOL,7200-50 E ROOSEVELT BLV,19149,(215) 624-8046,O,ELEMENTARY SCHOOL,PREK-5,,3,PRIVATE
80,226510068,,,CRYSTAL RIVER ACADEMY,CRYSTAL RIVER ACADEMY,6401 LORETTO AVE,19111,(215) 744-3757,O,ELEMENTARY/MIDDLE,K-8,,3,PRIVATE
81,226512252,,,HOLY INNOCENTS SCHOOL,HOLY INNOCENTS SCHOOL,1312 E  BRISTOL ST,19124,(215) 743-5909,O,ELEMENTARY/MIDDLE,PREK-8,,3,ARCHDIOCESE
82,226518542,,,ST LUCY DAY SCHOOL FOR CHILDREN WITH VISUAL IMPAIRMENTS,ST LUCY DAY SCHOOL FOR CHILDREN WITH VISUAL IMPAIRMENTS,1301 E HUNTING PARK AVE,19124,(215) 289-4220,O,ELEMENTARY/MIDDLE,PREK-8,,3,ARCHDIOCESE
83,226510064,,,SPRING GARDEN ACADEMY - TIOGA,SPRING GARDEN ACAD - TIOGA,3501-05 N 17TH ST,19140,(215) 226-1000,O,ELEMENTARY/MIDDLE,1-8,,3,PRIVATE
84,300518830,,,THANKFUL LEARNING CENTER INC,THANKFUL LEARNING CENTER INC,3200-02 N 17TH ST,19140,(215) 226-5544,O,PRE-SCHOOL,PRE-SCHOOL,,3,PRIVATE
85,226510063,,,EDUCATION IS THE KEY LEARNING CENTER,EDUCATION IS THE KEY LEARNING CENTER,1901 W GIRARD AVE,19142,(267) 312-0538,O,ELEMENTARY/MIDDLE,PREK-7,,3,PRIVATE
86,226510070,,,TARBIYATUL ILM ACADEMY INC.,TARBIYATUL ILM ACADEMY INC.,5700 N BROAD ST,19141,(215) 288-4600,O,ELEMENTARY/MIDDLE,K-8,,3,PRIVATE
87,226510031,,,KIDS WORLD CHRISTIAN EDUCATION CENTER- GERMANTOWN,KIDS WORLD CHRISTIAN EDUCATION CENTER- GERMANTOWN,629 E CHURCH LANE,19144,(215) 848-1800,O,ELEMENTARY SCHOOL,PREK-5,,3,PRIVATE
88,226510073,,,ST JAMES SCHOOL,ST JAMES SCHOOL,3201-29 W CLEARFIELD ST,19132,(215) 226-1276,O,MIDDLE SCHOOL,5-8,,3,PRIVATE
89,300515320,,,PRODIGY LEARNING CENTERS,PRODIGY LEARNING CENTERS,3345 W HUNTING PARK AVE,19132,(215) 228-7678,O,ELEMENTARY SCHOOL,PREK-K,,3,PRIVATE
90,226514262,,,MT AIRY CHRISTIAN DAY SCHOOL,MT AIRY CHRISTIAN DAY SCHOOL,6401 OGONTZ AVE,19126,(215) 276-2990,O,PRE-SCHOOL,PRE-SCHOOL,,3,PRIVATE
91,226511712,,,ADELAIDE EDUCATIONAL ACADEMY CENTER,ADELAIDE EDUCATIONAL ACADEMY CENTER,6100 N 21ST ST,19138,(215) 844-5000,O,ELEMENTARY SCHOOL,PREK-7,,3,PRIVATE
92,226515695,,,SAINTS TABERNACLE DAY SCHOOL,SAINTS TABERNACLE DAY SCHOOL,5800 N MARVINE ST,19141,(215) 548-6011,O,ELEMENTARY/MIDDLE,K-8,,3,PRIVATE
93,226510004,,,LOGAN HOPE SCHOOL,LOGAN HOPE SCHOOL,4934 N 13TH ST,19141,(215) 455-7442,O,ELEMENTARY/MIDDLE,K-8,,3,PRIVATE
94,126515001,7905,2670,CONSTITUTION HIGH SCHOOL,CONSTITUTION HIGH SCHOOL,18 S 7TH ST,19106,(215) 400-7850,,HIGH SCHOOL,9-12,381,1,DISTRICT
95,126515001,6525,5230,"CONWELL, RUSSELL MIDDLE SCHOOL",RUSSELL H. CONWELL SCHOOL,1849 E CLEARFIELD ST,19134,(215) 400-7210,,MIDDLE SCHOOL,5-8,328,1,DISTRICT
96,126515001,7239,7100,"COOKE, JAY ELEMENTARY SCHOOL",JAY COOKE SCHOOL,1300 W LOUDEN ST,19141,(215) 400-8330,,ELEMENTARY/MIDDLE,K-8,427,1,DISTRICT
97,126515001,5122,6410,COOK-WISSAHICKON SCHOOL,COOK-WISSAHICKON SCHOOL,201 E SALAIGNAC ST,19128,(215) 400-3430,,ELEMENTARY/MIDDLE,K-8,462,1,DISTRICT
98,126515001,5123,5470,"CRAMP, WILLIAM SCHOOL",WILLIAM CRAMP SCHOOL,3449 N MASCHER ST,19140,(215) 400-3860,,ELEMENTARY SCHOOL,K-5,479,1,DISTRICT
99,126515001,6996,2020,CREATIVE AND PERFORMING ARTS,HIGH SCHOOL FOR CREATIVE AND PERFORMING ARTS SCHOOL,901 S BROAD ST,19147,(215) 400-8140,,HIGH SCHOOL,9-12,736,1,DISTRICT
100,126515001,3762,8230,"CROSSAN, KENNEDY C. SCHOOL",KENNEDY C. CROSSAN SCHOOL,7350 BINGHAM ST,19111,(215) 400-3160,,ELEMENTARY SCHOOL,K-5,328,1,DISTRICT
101,126515001,3706,6200,"DAY, ANNA B. SCHOOL",ANNA B. DAY SCHOOL,6324 CRITTENDEN ST,19138,(215) 400-3520,,ELEMENTARY/MIDDLE,K-8,433,1,DISTRICT
102,126515001,7175,5170,"DEBURGOS, J. ELEMENTARY",JULIA DE BURGOS SCHOOL,401 W LEHIGH AVE,19133,(215) 400-7080,,ELEMENTARY/MIDDLE,K-8,830,1,DISTRICT
103,126515001,4727,8420,"DECATUR, STEPHEN SCHOOL",STEPHEN DECATUR SCHOOL,3500 ACADEMY RD,19154,(215) 400-3050,,ELEMENTARY/MIDDLE,K-8,979,1,DISTRICT
104,126515001,3786,4270,"DICK, WILLIAM SCHOOL",WILLIAM DICK SCHOOL,2498 W DIAMOND ST,19121,(215) 400-7340,,ELEMENTARY/MIDDLE,K-8,465,1,DISTRICT
105,126515001,3763,8240,"DISSTON, HAMILTON SCHOOL",HAMILTON DISSTON SCHOOL,6801 COTTAGE ST,19135,(215) 400-3350,,ELEMENTARY/MIDDLE,K-8,834,1,DISTRICT
106,126515001,3841,4060,"DOBBINS, MURRELL HIGH SCHOOL",MURRELL DOBBINS CAREER AND TECHNICAL HIGH SCHOOL,2150 W LEHIGH AVE,19132,(215) 400-7050,,HIGH SCHOOL,9-12,797,1,DISTRICT
107,126515001,3726,6450,"DOBSON, JAMES SCHOOL",JAMES DOBSON SCHOOL,4667 UMBRIA ST,19127,(215) 400-3570,,ELEMENTARY/MIDDLE,K-8,249,1,DISTRICT
108,126515001,5040,4460,"DUCKREY, TANNER SCHOOL",TANNER G. DUCKREY SCHOOL,1501 W DIAMOND ST,19121,(215) 400-7350,,ELEMENTARY/MIDDLE,K-8,567,1,DISTRICT
109,126515001,3687,5250,"DUNBAR, PAUL L. SCHOOL",PAUL L. DUNBAR SCHOOL,1750 N 12TH ST,19122,(215) 400-7410,,ELEMENTARY/MIDDLE,K-8,259,1,DISTRICT
110,126515001,3849,5020,"EDISON, THOMAS A. HIGH SCHOOL",THOMAS A. EDISON HIGH SCHOOL,151 W LUZERNE ST,19140,(215) 400-3900,,HIGH SCHOOL,9-12,1077,1,DISTRICT
111,126515001,3708,6210,"EDMONDS, FRANKLIN S. SCHOOL",FRANKLIN S. EDMONDS SCHOOL,8025 THOURON AVE,19150,(215) 400-3370,,ELEMENTARY/MIDDLE,K-8,535,1,DISTRICT
112,126515001,3688,5260,"ELKIN, LEWIS SCHOOL",LEWIS ELKIN SCHOOL,3199 D ST,19134,(215) 400-7140,,ELEMENTARY SCHOOL,K-4,677,1,DISTRICT
113,126515001,3738,7260,ELLWOOD SCHOOL,ELLWOOD SCHOOL,6701 N 13TH ST,19126,(215) 400-3540,,ELEMENTARY SCHOOL,K-5,301,1,DISTRICT
114,126515001,3709,6220,"EMLEN, ELEANOR C. SCHOOL",ELEANOR C. EMLEN SCHOOL,6501 CHEW AVE,19119,(215) 400-3470,,ELEMENTARY SCHOOL,K-5,328,1,DISTRICT
115,126515001,7023,4030,ENGINEERING & SCIENCE HIGH,HIGH SCHOOL OF ENGINEERING AND SCIENCE,1600 W NORRIS ST,19121,(215) 400-7380,,MIDDLE/HIGH,7-12,907,1,DISTRICT
116,126515001,7235,8380,"FARRELL, LOUIS H. SCHOOL",LOUIS H. FARRELL SCHOOL,8300 CASTOR AVE,19152,(215) 400-3230,,ELEMENTARY/MIDDLE,K-8,1184,1,DISTRICT
117,126515001,7226,2190,"FELL, D. NEWLIN SCHOOL",D. NEWLIN FELL SCHOOL,900 W OREGON AVE,19148,(215) 400-8260,,ELEMENTARY/MIDDLE,K-8,579,1,DISTRICT
118,126515001,3816,7120,"FELS, SAMUEL HIGH SCHOOL",SAMUEL FELS HIGH SCHOOL,5500 LANGDON ST,19124,(215) 400-7100,,HIGH SCHOOL,9-12,951,1,DISTRICT
119,126515001,7368,7500,FELTONVILLE ARTS & SCIENCES,FELTONVILLE SCHOOL OF ARTS AND SCIENCES,210 E COURTLAND ST,19120,(215) 400-3810,,MIDDLE SCHOOL,6-8,673,1,DISTRICT
120,126515001,3751,7310,FELTONVILLE INTERMEDIATE,FELTONVILLE INTERMEDIATE SCHOOL,238 E WYOMING AVE,19120,(215) 400-3730,,ELEMENTARY SCHOOL,3-5,638,1,DISTRICT
121,126515001,3739,7270,"FINLETTER, THOMAS K. SCHOOL",THOMAS K. FINLETTER SCHOOL,6100 N FRONT ST,19120,(215) 400-3750,,ELEMENTARY/MIDDLE,K-8,750,1,DISTRICT
122,126515001,6913,6230,FITLER ACADEMICS PLUS,FITLER ACADEMICS PLUS SCHOOL,140 W SEYMOUR ST,19144,(215) 400-3610,,ELEMENTARY/MIDDLE,K-8,271,1,DISTRICT
123,126515001,3731,8390,"FITZPATRICK, A. L. SCHOOL",A.L. FITZPATRICK SCHOOL,11061 KNIGHTS RD,19154,(215) 400-3060,,ELEMENTARY/MIDDLE,K-8,817,1,DISTRICT
124,126515001,3764,8250,"FORREST, EDWIN SCHOOL",EDWIN FORREST SCHOOL,7300 COTTAGE ST,19136,(215) 400-3330,,ELEMENTARY SCHOOL,K-6,1162,1,DISTRICT
125,126515001,3765,8260,FOX CHASE SCHOOL,FOX CHASE SCHOOL,500 RHAWN ST,19111,(215) 400-3170,,ELEMENTARY SCHOOL,K-5,528,1,DISTRICT
126,,,3369,CHRISTOPHER COLUMBUS CHARTER SCHOOL (ANNEX),CHRISTOPHER COLUMBUS CS (ANNEX),1242 S 13TH ST,19147,(215) 389-3374,O,ELEMENTARY SCHOOL,5-8,,2,CHARTER
127,226517652,,,ST FRANCIS XAVIER SCHOOL,ST FRANCIS XAVIER SCHOOL,641-51 N 24TH ST,19130,(215) 763-6564,O,ELEMENTARY/MIDDLE,PREK-8,,3,ARCHDIOCESE
128,226512852,,,JOHN W HALLAHAN GIRLS SCHOOL,JOHN W HALLAHAN GIRLS SCHOOL,319 N 19TH ST,19103,(215) 563-8930,O,HIGH SCHOOL,9-12,,3,ARCHDIOCESE
129,226515602,,,ROMAN CATHOLIC HIGH SCHOOL,ROMAN CATHOLIC HIGH SCHOOL,303 N BROAD ST,19107,(215) 627-1270,O,HIGH SCHOOL,9-12,,3,ARCHDIOCESE
130,226512352,,,HOLY REDEEMER SCHOOL,HOLY REDEEMER SCHOOL,903-27 VINE ST,19107,(215) 922-0999,O,ELEMENTARY/MIDDLE,K-8,,3,ARCHDIOCESE
131,226512952,,,LITTLE FLOWER CATHOLIC SCHOOL,LITTLE FLOWER CATHOLIC SCHOOL,1001 W LUZERNE ST,19140,(215) 455-6900,O,HIGH SCHOOL,9-12,,3,ARCHDIOCESE
132,226510502,,,ARCHBISHOP RYAN ACADEMY FOR THE DEAF,ARCHBISHOP RYAN SCH HARD OF HEARING CHILDREN,4251 L STREET,19124,(215) 289-4220,O,ELEMENTARY/MIDDLE,K-8,,3,ARCHDIOCESE
133,226519442,,,ST VERONICA SCHOOL,ST VERONICA SCHOOL,3501-25 N 6TH ST,19140,(215) 225-1575,O,ELEMENTARY/MIDDLE,K-8,,3,ARCHDIOCESE
134,226517752,,,ST GEORGE SCHOOL,ST GEORGE SCHOOL,2700 E VENANGO ST,19134,(215) 634-8803,O,ELEMENTARY/MIDDLE,PREK-8,,3,ARCHDIOCESE
135,226514252,,,MOTHER DIVINE GRACE SCHOOL,MOTHER DIVINE GRACE SCHOOL,2612 E MONMOUTH ST,19134,(215) 426-7325,O,ELEMENTARY/MIDDLE,PREK-8,,3,ARCHDIOCESE
136,226514352,,,NAZARETH ACADEMY GRADE SCHOOL,NAZARETH ACADEMY GRADE SCHOOL,4701 GRANT AVE,19114,(215) 637-7777,O,ELEMENTARY/MIDDLE,1-8,,3,PRIVATE
137,226514402,,,NAZARETH ACADEMY HIGH SCHOOL,NAZARETH ACADEMY HIGH SCHOOL,4001 GRANT AVE,19114,(215) 637-7676,O,HIGH SCHOOL,9-12,,3,PRIVATE
138,226510512,,,BETHEL BAPTIST ACADEMY,BETHEL BAPTIST ACADEMY,2210 E SUSQUEHANNA AVE,19125,(215) 426-1909,O,ELEMENTARY/MIDDLE/HIGH,PREK-12,,3,PRIVATE
139,226511922,,,GREATER HOPE CHRISTIAN ACADEMY,GREATER HOPE CHRISTIAN ACADEMY,7029 WOODLAND AVE,19142,(215) 729-0374,O,ELEMENTARY/MIDDLE/HIGH,PREK-12,,3,PRIVATE
140,300513640,,,EASTER SEALS OF SOUTHEASTERN PA - JOSEPH X. YAFFE CENTER,EASTER SEALS OF SE PA - JOSEPH X. YAFFE CENTER,3975 CONSHOHOCKEN AVE,19131,(215) 879-1000,O,SPECIAL CENTER,UNGRADED,,3,PRIVATE
141,226510072,,,K W REED CHRISTIAN ACADEMY FOR BOYS,K W REED CHRISTIAN ACADEMY FOR BOYS,3955 CONSHOHOCKEN AVE,19131,(215) 473-3000,O,ELEMENTARY/MIDDLE,K-8,,3,PRIVATE
142,326510079,,,COMMUNITY PARTNERSHIP SCHOOL,COMMUNITY PARTNERSHIP SCHOOL,3033 W GLENWOOD AVE,19121,(215) 235-0461,O,ELEMENTARY SCHOOL,PREK-5,,3,PRIVATE
143,226510008,,,WHITE DOVE PERFORMING ARTS ACADEMY,WHITE DOVE PERFORMING ARTS ACADEMY,2510 RIDGE AVE,19121,(215) 236-7195,O,ELEMENTARY/MIDDLE/HIGH,PREK-12,,3,PRIVATE
144,226511802,,,GESU SCHOOL,GESU SCHOOL,1700 W THOMPSON ST,19121,(215) 763-3660,O,ELEMENTARY/MIDDLE,PREK-8,,3,PRIVATE
145,226515632,,,PHILADELPHIA ACADEMIC SCHOOL,PHILADELPHIA ACADEMIC SCHOOL,1421 W GIRARD AVE,19130,(215) 477-1040,O,HIGH SCHOOL,12,,3,PRIVATE
146,226510062,,,SHILOH CHRISTIAN ACADEMY,SHILOH CHRISTIAN ACADEMY,1516-34 MASTER ST,19121,(215) 763-7335 ,O,ELEMENTARY/MIDDLE,K-8,,3,PRIVATE
147,226510055,,,AL MOSHEH SHULE OF POSITIVE ED,AL MOSHEH SHULE OF POSITIVE ED,3922 CAMBRIDGE ST,19104,(215) 765-6462,O,ELEMENTARY/MIDDLE,K-4,,3,PRIVATE
148,326510060,,,HOPE PARTNERSHIP FOR EDUCATION,HOPE PARTNERSHIP FOR EDUCATION,2601 N 11TH ST,19133,(215) 232-5410,O,MIDDLE/HIGH,5-8,,3,PRIVATE
149,226510024,,,SPRING GARDEN ACADEMY,SPRING GARDEN ACADEMY,1801 SPRING GARDEN ST,19130,(215) 563-9192,O,PRE-SCHOOL,PREK-K,,3,PRIVATE
150,126515001,3803,8400,"FRANK, ANNE SCHOOL",ANNE FRANK SCHOOL,2000 BOWLER ST,19115,(215) 400-3070,,ELEMENTARY SCHOOL,K-5,1359,1,DISTRICT
151,126515001,3850,7010,FRANKFORD HIGH SCHOOL,FRANKFORD HIGH SCHOOL,5000 OXFORD AVE,19124,(215) 400-7200,,HIGH SCHOOL,9-12,902,1,DISTRICT
152,126515001,6822,2290,FRANKLIN LEARNING CENTER,FRANKLIN LEARNING CENTER,616 N 15TH ST,19130,(215) 400-7570,,HIGH SCHOOL,9-12,912,1,DISTRICT
153,126515001,3851,2010,"FRANKLIN, BENJAMIN HIGH SCHOOL",BENJAMIN FRANKLIN HIGH SCHOOL,550 N BROAD ST,19130,(215) 400-7600,,HIGH SCHOOL,9-12,374,1,DISTRICT
154,126515001,7231,7280,"FRANKLIN, BENJAMIN SCHOOL",BENJAMIN FRANKLIN SCHOOL,5735 RISING SUN AVE,19120,(215) 400-3760,,ELEMENTARY/MIDDLE,K-8,795,1,DISTRICT
155,126515001,3818,2160,"FURNESS, HORACE HIGH SCHOOL",FURNESS HIGH SCHOOL,1900 S 3RD ST,19148,(215) 400-8300,,HIGH SCHOOL,9-12,717,1,DISTRICT
156,126515001,3625,4530,"GIDEON, EDWARD SCHOOL",EDWARD GIDEON SCHOOL,2817 W GLENWOOD AVE,19121,(215) 400-7360,,ELEMENTARY/MIDDLE,K-8,224,1,DISTRICT
157,126515001,7664,2410,GIRARD ACADEMIC MUSIC PROGRAM,GIRARD ACADEMIC MUSIC PROGRAM,2136 W RITNER ST,19145,(215) 400-8230,,MIDDLE/HIGH,5-12,625,1,DISTRICT
158,126515001,3776,2320,"GIRARD, STEPHEN SCHOOL",STEPHEN GIRARD SCHOOL,1800 SNYDER AVE,19145,(215) 400-8180,,ELEMENTARY SCHOOL,K-4,390,1,DISTRICT
159,126515001,3843,6050,"GIRLS, PHILA HIGH SCHOOL FOR",PHILADELPHIA HIGH SCHOOL FOR GIRLS,1400 W OLNEY AVE,19141,(215) 400-3700,,HIGH SCHOOL,9-12,766,1,DISTRICT
160,126515001,3668,4280,"GOMPERS, SAMUEL SCHOOL",SAMUEL GOMPERS SCHOOL,5701 WYNNEFIELD AVE,19131,(215) 400-7250,,ELEMENTARY/MIDDLE,K-8,289,1,DISTRICT
161,226511652,,,FRIENDS SELECT SCHOOL,FRIENDS SELECT SCHOOL,3 BENJ FRANKLIN PKY,19103,(215) 561-5900,O,ELEMENTARY/MIDDLE/HIGH,PREK-12,,3,PRIVATE
162,300513960,,,GREENE TOWNE SCHOOL INC,GREENE TOWNE SCHOOL INC.,2121 ARCH ST,19103,(215) 563-6368,O,KINDERGARTEN,PREK-K,,3,PRIVATE
163,300514200,,,HMS SCHOOL FOR CHILDREN W/CEREBRAL PALSY,HMS SCHOOL FOR CHILDREN W/CEREBRAL PALSY,4400 BALTIMORE AVE,19104,(215) 222-2566,O,ELEMENTARY/MIDDLE/HIGH,PREK-12,,3,PRIVATE
164,226515462,,,PHILADELPHIA SCHOOL,PHILADELPHIA SCHOOL,2501-29 LOMBARD ST,19146,(215) 545-5323,O,ELEMENTARY/MIDDLE,PREK-8,,3,PRIVATE
165,,,,FREIRE CHARTER SCHOOL,FREIRE CHARTER SCHOOL,1026 MARKET ST,19107,(267) 670-7499,,MIDDLE SCHOOL,5-8,,2,CHARTER
166,,,,PHILADELPHIA PERFORMING ARTS CHARTER SCHOOL,PHILADELPHIA PERFORMING ARTS CHARTER SCHOOL,1600 VINE ST,19102,(267) 428-2224,,MIDDLE/HIGH,5-12,,2,CHARTER
167,226511492,,,EVELYN GRAVES CHRISTIAN ACADEMY,EVELYN GRAVES CHRISTIAN ACADEMY,5501 CHESTER AVE,19143,(215) 727-7794,O,ELEMENTARY/MIDDLE/HIGH,PREK-12,,3,PRIVATE
168,300512620,,,CORNERSTONE CHRISTIAN ACADEMY,CORNERSTONE CHRISTIAN ACADEMY,1939 S 58TH ST,19143,(215) 724-6858,O,ELEMENTARY/MIDDLE,K-8,,3,PRIVATE
169,226511372,,,EAGLES NEST CHRISTIAN SCHOOL,EAGLES NEST CHRISTIAN SCHOOL,501 W KING ST,19144,(215) 298-9508,O,ELEMENTARY/MIDDLE,K-8,,3,PRIVATE
170,226511552,,,FAITH TABERNACLE SCHOOL,FAITH TABERNACLE SCHOOL,3611 N RANDOLPH ST,19140,(215) 221-0909,O,ELEMENTARY/MIDDLE/HIGH,1-12,,3,PRIVATE
171,,,6955,CAMELOT THERAPEUTIC DAY SCHOOL OF PHILADELPHIA,CAMELOT THERAPEUTIC DAY SCHOOL,5612 GREENE ST,19144,(267) 270-4665,O,UNGRADED,9-12,,1,DISTRICT
172,300519410,,,WOODBINE ACADEMY INC,WOODBINE ACADEMY INC,5337 WYNNEFIELD AVE,19131,(215) 878-1141,O,ELEMENTARY SCHOOL,PREK-5,,3,PRIVATE
173,226512842,,,JAMESON CHRISTIAN ACADEMY,JAMESON CHRISTIAN ACADEMY,5301 WYNNEFIELD AVE,19131,(215) 477-7777,O,ELEMENTARY/MIDDLE/HIGH,K-12,,3,PRIVATE
174,226510132,,,AL-AQSA ISLAMIC SCHOOL,AL-AQSA ISLAMIC SCHOOL,1501-11 GERMANTOWN AVE,19122,215) 765-6660,O,ELEMENTARY/MIDDLE/HIGH,K-12,,3,PRIVATE
175,226510682,,,BLAIR CHRISTIAN ACADEMY & PRESCHOOL,BLAIR CHRISTIAN ACADEMY & PRESCHOOL,212-20 W UPSAL ST,19119,(215) 438-6557,O,ELEMENTARY/MIDDLE,PREK-8,,3,PRIVATE
176,226510732,,,CALVARY CHRISTIAN ACADEMY,CALVARY CHRISTIAN ACADEMY,13500 PHILMONT AVE,19116,(215) 969-1579,O,ELEMENTARY/MIDDLE/HIGH,PREK-12,,3,PRIVATE
177,226510932,,,CELESTIAL CHRISTIAN ACADEMY,CELESTIAL CHRISTIAN ACADEMY,2534 W THOMPSON ST,19121,(215) 232-5863,O,ELEMENTARY/MIDDLE,PREK-8,,3,PRIVATE
178,226512022,,,HAROLD O DAVIS CHRISTIAN SCHOOL,HAROLD O DAVIS CHRISTIAN SCHOOL,1001 W WINGOHOCKING ST,19140,(267) 368-5102,O,ELEMENTARY/MIDDLE,PREK-5,,3,PRIVATE
179,226512732,,,INTERNATIONAL CHRISTIAN HIGH SCHOOL,INTERNATIONAL CHRISTIAN HIGH SCHOOL,5500 TABOR AVE,19120,(267) 900-2000,O,HIGH SCHOOL,9-12,,3,PRIVATE
180,300514330,,,POLITZ HEBREW ACADEMY,POLITZ HEBREW ACADEMY,9229 OLD BUSTLETON AVE,19115,(215) 969-5960,O,ELEMENTARY/MIDDLE,K-8,,3,PRIVATE
181,226510023,,,LASALLE ACADEMY,LASALLE ACADEMY,1432-36 N 2ND ST,19122,(215) 739-5804,O,ELEMENTARY/MIDDLE,3-8,,3,PRIVATE
182,226515392,,,QUBA INSTITUTE OF ARABIC & ISLAMIC STUDIES,QUBA INSTITUTE OF ARABIC & ISLAMIC STUDIES,4637 LANCASTER AVE,19131,(215) 473-8589,O,ELEMENTARY/MIDDLE,PREK-8,,3,PRIVATE
183,226515872,,,SHAARE SHAMAYIM-BETH JUDAH KINDERGARTEN,SHAARE SHAMAYIM-BETH JUDAH KINDERGARTEN,9768 VERREE RD,19115,(215) 673-2323,O,PRE-SCHOOL,PREK,,3,PRIVATE
184,226519542,,,TALMUDICAL YESHIVA OF PHILADELPHIA,TALMUDICAL YESHIVA OF PHILA,6055-63 DREXEL RD,19131,(215) 477-1000,O,HIGH SCHOOL,9-12,,3,PRIVATE
185,226514095,,,CITY KIDS,CITY KIDS,2311 S 13TH ST,19148,(215) 334-7440,O,KINDERGARTEN,PREK-K,,3,PRIVATE
186,226510020,,,NEW LIFE ALTERNATIVES CHRISTIAN ACADEMY,NEW LIFE ALTERNATIVES CHRISTIAN ACADEMY,1993-95 N 63RD ST,19151,(215) 877-3440,O,ELEMENTARY SCHOOL,K-4,,3,PRIVATE
187,226511642,,,FIRST CENTURY GOSPEL SCHOOL,FIRST CENTURY GOSPEL SCHOOL,6807 RISING SUN AVE,19111,(215) 742-6615,O,ELEMENTARY/MIDDLE/HIGH,1-10,,3,PRIVATE
188,226512032,,,HOPE CHURCH SCHOOL,HOPE CHURCH SCHOOL,6707 OLD YORK RD,19126,(215) 927-7770,O,ELEMENTARY/MIDDLE/HIGH,PREK-12,,3,PRIVATE
189,226512672,,,HUNTING PARK CHRISTIAN ACADEMY,HUNTING PARK CHRISTIAN ACADEMY,601 W CAYUGA ST,19140,(267) 331-8002,O,ELEMENTARY/MIDDLE,PREK-8,,3,PRIVATE
190,226511132,,,THE CITY SCHOOL,THE CITY SCHOOL,910 N 6TH ST,19103,(215) 731-1930,O,MIDDLE/HIGH,6-12,,3,PRIVATE
191,226514122,,,CREFELD SCHOOL,CREFELD SCHOOL,8836 CREFELD ST,19118,(215) 242-5545,O,MIDDLE/HIGH,7-12,,3,PRIVATE
192,226512042,,,HOLMESBURG CHRISTIAN ACADEMY,HOLMESBURG CHRISTIAN ACADEMY,7923 FRANKFORD AVE,19136,(215) 335-4323,O,ELEMENTARY/MIDDLE,PREK-8,,3,PRIVATE
193,226511702,,,GERMANTOWN FRIENDS SCHOOL,GERMANTOWN FRIENDS SCHOOL,31 W COULTER ST,19144,(215) 951-2300,O,ELEMENTARY/MIDDLE/HIGH,K-12,,3,PRIVATE
194,226511952,,,GREENE STREET FRIENDS SCHOOL,GREENE STREET FRIENDS SCHOOL,5511 GREENE ST,19144,(215) 438-7000,O,ELEMENTARY/MIDDLE,PREK-8,,3,PRIVATE
195,300517255,,,WALDORF SCHOOL OF PHILADELPHIA,WALDORF SCHOOL OF PHILADELPHIA,6000 WAYNE AVE,19144,(215) 248-1662,O,ELEMENTARY/MIDDLE,PREK-8,,3,PRIVATE
196,300518770,,,BIG BACKYARD,BIG BACKYARD,226 E GOWEN AVE,19119,(215) 248-0919,O,PRE-SCHOOL,PREK,,3,PRIVATE
197,226510019,,,JESUS IS THE WAY CHRISTIAN ACADEMY,JESUS IS THE WAY CHRISTIAN ACADEMY,6753 GERMANTOWN AVE,19119,(267) 970-9779,O,UNGRADED,PREK-8,,3,PRIVATE
198,300512880,,,COOPERATIVE NURSERY SCHOOL,COOPERATIVE NURSERY SCHOOL,6509 LINCOLN DR,19119,(215) 844-5770,O,PRE-SCHOOL,PREK,,3,PRIVATE
199,326510174,,,"CHESTERBROOK ACADEMY
",CHESTERBROOK ACADEMY,510 WALNUT ST,19106,(215) 592-8257,O,PRE-SCHOOL,PRE-SCHOOL,,3,PRIVATE
200,326510169,,,CLARKE SCHOOLS FOR HEARING AND SPEECH,"CLARKE PENNSYLVANIA, INC.",625 WISTER STREET,19144,(267) 385-3436,O,PRE-SCHOOL,PREK-K,,3,PRIVATE
201,226510085,,,COMPUTER KIDZ CHRISTIAN ACADEMY,COMPUTER KIDZ,2243-57 N. 20TH ST,19132,(215) 235-1230,O,PRE-SCHOOL,PRE-SCHOOL,,3,PRIVATE
202,226510080,,,CRISTO REY PHILADELPHIA HIGH SCHOOL,CRISTO REY PHILADELPHIA HIGH SCHOOL,5218 N BROAD ST,19141,(215) 219-3943,O,HIGH SCHOOL,9-12,,3,ARCHDIOCESE
203,226510088,,,EDUCATION NATION CHRISTIAN ACADEMY,EDUCATION NATION CHRISTIAN ACADEMY,13 E MOUNT PLEASANT AVE,19119,(267) 408-1209,O,,,,3,PRIVATE
204,300513890,,,GREEN TREE SCHOOL,GREEN TREE,1196 E WASHINGTON LN,19138,(215) 866-0200,O,SPECIAL CENTER,UNGRADED,,3,PRIVATE
205,226510083,,,"IN THE BEGINNING, INC.",IN THE BEGINNING,5200 WYNNEFIELD AVENUE,19131,(215) 878-4034,O,KINDERGARTEN,PREK-K,,3,PRIVATE
206,226510081,,,OLNEY CHRISTIAN SCHOOL,OLNEY CHRISTIAN SCHOOL,425 E. ROOSEVELT BLVD,19120,(215) 324-1186,O,ELEMENTARY SCHOOL,K-8,,3,PRIVATE
207,226511502,,,OUR LADY OF HOPE REGIONAL CATHOLIC SCHOOL,OUR LADY OF HOPE,1248 JACKSON STREET,19148,(215) 467-5385,O,ELEMENTARY/MIDDLE,PREK-8,,3,ARCHDIOCESE
208,226510086,,,PHILADELPHIA CLASSICAL SCHOOL,PHILADELPHIA CLASSICAL SCHOOL,1636 SANSOM ST,19103,(412) 915-5510,O,ELEMENTARY/MIDDLE,K-8,,3,PRIVATE
209,226510071,,,PHILADELPHIA FREE SCHOOL,PHILADELPHIA FREE SCHOOL,801 S 48TH ST,19143,(215) 218-9586,O,ELEMENTARY/MIDDLE/HIGH,PREK-12,,3,PRIVATE
210,226500000,,,SCHOOL OF FAITH IN GOD,FAITH IN GOD,1680-82 BRIDGE STREET,19124,(215) 833-7613,O,ELEMENTARY/MIDDLE/HIGH,K-12,,3,PRIVATE
211,226510067,,,SMART CENTER ACADEMY,SMART CENTER ACADEMY,3301-33 W. WESTMORELAND ST,19129,(610) 742-2804,O,PRE-SCHOOL,PRE-SCHOOL,,3,PRIVATE
212,226519042,,,ST ANTHONY OF PADUA REGIONAL CATHOLIC SCHOOL,ST ANTHONY OF PADUA REGIONAL CATHOLIC SCHOOL,913 PIERCE ST,19148,(215) 468-0353,O,ELEMENTARY/MIDDLE,PREK-8,,3,ARCHDIOCESE
213,226510054,,,GAN CHABAD,GAN CHABAD,7620 CASTOR AVE,19152,(215)695-0399,O,KINDERGARTEN,PREK-K,,3,PRIVATE
214,126515001,7904,2620,ACADEMY AT PALUMBO,ACADEMY AT PALUMBO,1100 CATHARINE ST,19147,(215) 400-8130,,HIGH SCHOOL,9-12,1057,1,DISTRICT
215,126515001,7256,5200,"ADAIRE, ALEXANDER SCHOOL",ALEXANDER ADAIRE SCHOOL,1300 E PALMER ST,19125,(215) 400-7480,,ELEMENTARY/MIDDLE,K-8,447,1,DISTRICT
216,126515001,5292,4440,"ALLEN, DR. ETHEL SCHOOL",DR. ETHEL ALLEN SCHOOL,3200 W LEHIGH AVE,19132,(215) 400-7040,,ELEMENTARY/MIDDLE,K-8,467,1,DISTRICT
217,126515001,3758,8200,"ALLEN, ETHAN SCHOOL",ETHAN ALLEN SCHOOL ,6329 BATTERSBY ST,19149,(215) 400-3270,,ELEMENTARY/MIDDLE,K-8,982,1,DISTRICT
218,126515001,6823,5430,AMY 5 AT JAMES MARTIN,ALTERNATIVE MIDDLE YEARS AT JAMES MARTIN ,3380 RICHMOND ST,19134,(215) 400-7190,,MIDDLE SCHOOL,6-8,425,1,DISTRICT
219,126515001,7024,6480,AMY NORTHWEST,ACADEMY FOR THE MIDDLE YEARS AT NORTHWEST,6000 RIDGE AVE,19128,(215) 400-3460,,MIDDLE SCHOOL,6-8,319,1,DISTRICT
220,126515001,3804,1460,"ANDERSON, ADD B. SCHOOL",ADD B. ANDERSON SCHOOL,1034 S 60TH ST,19143,(215) 400-7890,,ELEMENTARY/MIDDLE,K-8,464,1,DISTRICT
221,126515001,3805,2480,"ARTHUR, CHESTER A. SCHOOL",CHESTER A. ARTHUR SCHOOL,2000 CATHARINE ST,19146,(215) 400-7940,,ELEMENTARY/MIDDLE,K-8,290,1,DISTRICT
222,126515001,8039,8040,ARTS ACADEMY AT BENJAMIN RUSH,ARTS ACADEMY AT BENJAMIN RUSH,11081 KNIGHTS RD,19154,(215) 400-3030,,HIGH SCHOOL,9-12,647,1,DISTRICT
223,126515001,3618,2210,BACHE-MARTIN SCHOOL,BACHE-MARTIN SCHOOL,2201 BROWN ST,19130,(215) 400-7550,,ELEMENTARY/MIDDLE,K-8,453,1,DISTRICT
224,126515001,6824,8160,BALDI MIDDLE SCHOOL,BALDI SCHOOL,8801 VERREE RD,19115,(215) 400-3090,,MIDDLE SCHOOL,6-8,1501,1,DISTRICT
225,126515001,8029,1200,"BARRY, JOHN ELEMENTARY SCHOOL",JOHN BARRY SCHOOL,5900 RACE ST,19139,(215) 400-7640,,ELEMENTARY/MIDDLE,K-8,574,1,DISTRICT
226,126515001,3732,7200,BARTON SCHOOL,CLARA BARTON SCHOOL,4600 ROSEHILL ST,19120,(215) 400-3720,,ELEMENTARY SCHOOL,K-2,640,1,DISTRICT
227,126515001,3847,1010,"BARTRAM, JOHN HIGH SCHOOL",JOHN BARTRAM HIGH SCHOOL,2401 S 67TH ST,19142,(215) 400-8100,,HIGH SCHOOL,9-12,545,1,DISTRICT
228,126515001,5183,7510,"BETHUNE, MARY MCLEOD SCHOOL",MARY M. BETHUNE SCHOOL,3301 OLD YORK RD,19140,(215) 400-3890,,ELEMENTARY/MIDDLE,K-8,570,1,DISTRICT
229,126515001,3662,4220,"BLAINE, JAMES G. SCHOOL",JAMES G. BLAINE SCHOOL,3001 W BERKS ST,19121,(215) 400-7330,,ELEMENTARY/MIDDLE,K-8,407,1,DISTRICT
230,126515001,3663,1490,"BLANKENBURG, RUDOLPH SCHOOL",RUDOLPH BLANKENBURG SCHOOL,4600 W GIRARD AVE,19131,(215) 400-7280,,ELEMENTARY/MIDDLE,K-8,397,1,DISTRICT
231,126515001,7070,5150,"BODINE, WILLIAM W. HIGH SCHOOL",WILLIAM W. BODINE HIGH SCHOOL,1101 N 4TH ST,19123,(215) 400-7630,,HIGH SCHOOL,9-12,601,1,DISTRICT
232,126515001,3620,2240,"BREGY, F. AMEDEE SCHOOL",F. AMEDEE BREGY SCHOOL,1700 BIGLER ST,19145,(215) 400-8210,,ELEMENTARY/MIDDLE,K-8,324,1,DISTRICT
233,126515001,3745,7470,BRIDESBURG SCHOOL,BRIDESBURG SCHOOL,2824 JENKS ST,19137,(215) 400-7240,,ELEMENTARY/MIDDLE,K-8,789,1,DISTRICT
234,126515001,3684,5210,"BROWN, HENRY A. SCHOOL",HENRY A. BROWN SCHOOL,1946 E SERGEANT ST,19125,(215) 400-7490,,ELEMENTARY/MIDDLE,K-8,397,1,DISTRICT
235,126515001,6529,8210,"BROWN, JOSEPH H. SCHOOL",JOSEPH H. BROWN SCHOOL,3600 STANWOOD ST,19136,(215) 400-3320,,ELEMENTARY SCHOOL,K-6,597,1,DISTRICT
236,126515001,3601,1230,"BRYANT, WILLIAM C. SCHOOL",WILLIAM C. BRYANT SCHOOL,6001 CEDAR AVE,19143,(215) 400-7910,,ELEMENTARY/MIDDLE,K-8,424,1,DISTRICT
237,126515001,8332,5610,BUILDING 21,BUILDING 21,6501 LIMEKILN PIKE,19138,(215) 400-7450,,HIGH SCHOOL,9-12,349,1,DISTRICT
238,126515001,7230,7220,"CARNELL, LAURA H. SCHOOL",LAURA H. CARNELL SCHOOL,1100 DEVEREAUX AVE,19111,(215) 400-3150,,ELEMENTARY SCHOOL,K-5,847,1,DISTRICT
239,126515001,3664,4240,"CASSIDY,LEWIS C ACADEMICS PLUS",LEWIS C. CASSIDY ACADEMICS PLUS SCHOOL,6523 LANSDOWNE AVE,19151,(215) 400-7510,,ELEMENTARY/MIDDLE,K-8,415,1,DISTRICT
240,126515001,3602,1250,"CATHARINE, JOSEPH SCHOOL",JOSEPH W. CATHARINE SCHOOL,6600 CHESTER AVE,19142,(215) 400-8150,,ELEMENTARY SCHOOL,K-5,456,1,DISTRICT
241,126515001,7404,5490,CAYUGA SCHOOL,CAYUGA SCHOOL,4344 N 5TH ST,19140,(215) 400-3850,,ELEMENTARY SCHOOL,K-5,428,1,DISTRICT
242,126515001,3848,6010,CENTRAL HIGH SCHOOL,CENTRAL HIGH SCHOOL,1700 W OLNEY AVE,19141,(215) 400-3590,,HIGH SCHOOL,9-12,2411,1,DISTRICT
243,126515001,3622,2260,"CHILDS, GEORGE W. SCHOOL",GEORGE W. CHILDS SCHOOL,1599 WHARTON ST,19146,(215) 400-7950,,ELEMENTARY/MIDDLE,K-8,508,1,DISTRICT
244,126515001,6767,7730,"CLEMENTE, ROBERTO MIDDLE SCHOOL",ROBERTO CLEMENTE SCHOOL,122 W ERIE AVE,19140,(215) 400-3930,,MIDDLE SCHOOL,6-8,386,1,DISTRICT
245,126515001,3782,1260,"COMEGYS, BENJAMIN B. SCHOOL",BENJAMIN B. COMEGYS SCHOOL,5100 GREENWAY AVE,19143,(215) 400-7860,,ELEMENTARY/MIDDLE,K-8,466,1,DISTRICT
246,126515001,3760,8370,"COMLY, WATSON SCHOOL",WATSON COMLY SCHOOL,1001 BYBERRY RD,19116,(215) 400-3010,,ELEMENTARY SCHOOL,K-5,511,1,DISTRICT
247,126515001,3629,2370,"MCDANIEL, DELAPLAINE SCHOOL",DELAPLAINE MCDANIEL SCHOOL,1801 S 22ND ST,19145,(215) 400-8220,,ELEMENTARY/MIDDLE,K-8,352,1,DISTRICT
248,126515001,5293,5350,"MCKINLEY, WILLIAM SCHOOL",WILLIAM MCKINLEY SCHOOL,2101 N ORKNEY ST,19122,(215) 400-7440,,ELEMENTARY/MIDDLE,K-8,413,1,DISTRICT
249,126515001,3630,4570,"MEADE, GEN. GEORGE G. SCHOOL",GENERAL GEORGE G. MEADE SCHOOL,1600 N 18TH ST,19121,(215) 400-7310,,ELEMENTARY/MIDDLE,K-8,344,1,DISTRICT
250,126515001,6768,8140,"MEEHAN, AUSTIN MIDDLE SCHOOL",AUSTIN MEEHAN SCHOOL,3001 RYAN AVE,19152,(215) 400-3240,,MIDDLE SCHOOL,7-8,662,1,DISTRICT
251,126515001,3649,2380,"MEREDITH, WILLIAM M. SCHOOL",WILLIAM M. MEREDITH SCHOOL,725 S 5TH ST,19147,(215) 400-7990,,ELEMENTARY/MIDDLE,K-8,538,1,DISTRICT
252,126515001,3720,6320,"MIFFLIN, THOMAS SCHOOL",THOMAS MIFFLIN SCHOOL,3624 CONRAD ST,19129,(215) 400-3830,,ELEMENTARY/MIDDLE,K-8,332,1,DISTRICT
253,126515001,3798,1370,MITCHELL ELEMENTARY SCHOOL,S. WEIR MITCHELL SCHOOL,5500 KINGSESSING AVE,19143,(215) 400-7880,,ELEMENTARY/MIDDLE,K-8,465,1,DISTRICT
254,126515001,3697,5370,"MOFFET, JOHN SCHOOL",JOHN MOFFET SCHOOL,127 W OXFORD ST,19122,(215) 400-7390,,ELEMENTARY SCHOOL,K-5,290,1,DISTRICT
255,126515001,3770,8310,"MOORE, J. HAMPTON SCHOOL",J. HAMPTON MOORE SCHOOL,6900 SUMMERDALE AVE,19111,(215) 400-3180,,ELEMENTARY SCHOOL,K-5,1157,1,DISTRICT
256,126515001,4868,2390,"MORRIS, ROBERT SCHOOL",ROBERT MORRIS SCHOOL,2600 W THOMPSON ST,19121,(215) 400-7320,,ELEMENTARY/MIDDLE,K-8,236,1,DISTRICT
257,126515001,3749,7390,"MORRISON, ANDREW J. SCHOOL",ANDREW J. MORRISON SCHOOL,5100 N 3RD ST,19120,(215) 400-3780,,ELEMENTARY/MIDDLE,K-8,686,1,DISTRICT
258,126515001,6535,1380,"MORTON, THOMAS G. SCHOOL",THOMAS G. MORTON SCHOOL,2501 S 63RD ST,19142,(215) 400-8160,,ELEMENTARY SCHOOL,K-5,520,1,DISTRICT
259,126515001,7815,1190,MOTIVATION HIGH SCHOOL,MOTIVATION HIGH SCHOOL,5900 BALTIMORE AVE,19143,(215) 400-7930,,HIGH SCHOOL,9-12,374,1,DISTRICT
260,126515001,7522,5680,"MUNOZ-MARIN, HON LUIS SCHOOL",HONORABLE LUIS MUNOZ-MARIN SCHOOL,3300 N 3RD ST,19140,(215) 400-3920,,ELEMENTARY/MIDDLE,K-8,618,1,DISTRICT
261,126515001,7022,1580,MYA-MIDDLE YEARS ALTERNATIVE,MIDDLE YEARS ALTERNATIVE SCHOOL,4725 FAIRMOUNT AVE,19139,(215) 400-7720,,MIDDLE SCHOOL,5-8,258,1,DISTRICT
262,126515001,3650,2590,"NEBINGER, GEORGE W. SCHOOL",GEORGE W. NEBINGER SCHOOL,601 CARPENTER ST,19147,(215) 400-8110,,ELEMENTARY/MIDDLE,K-8,525,1,DISTRICT
263,126515001,3855,8020,NORTHEAST HIGH SCHOOL,NORTHEAST HIGH SCHOOL,1601 COTTMAN AVE,19111,(215) 400-3200,,HIGH SCHOOL,9-12,3467,1,DISTRICT
264,126515001,3750,7400,OLNEY ELEMENTARY SCHOOL,OLNEY SCHOOL,5301 N WATER ST,19120,(215) 400-3790,,ELEMENTARY/MIDDLE,K-8,867,1,DISTRICT
265,126515001,6960,4480,OVERBROOK EDUCATIONAL CENTER,OVERBROOK EDUCATIONAL CENTER,6722 LANSDOWNE AVE,19151,(215) 400-7540,,ELEMENTARY/MIDDLE,K-8,285,1,DISTRICT
266,226511072,,,CHRIST INDEPENDENT BAPTIST ACADEMY,CHRIST INDEPENDENT BAPTIST ACADEMY,1618 WOMRATH ST,19124,(215) 288-5667,,,K-12,,3,PRIVATE
267,126515001,7903,1030,HIGH SCHOOL OF THE FUTURE,HIGH SCHOOL OF THE FUTURE,4021 PARKSIDE AVE,19104,(215) 400-7790,,HIGH SCHOOL,9-12,558,1,DISTRICT
268,126515001,7229,6460,HILL-FREEDMAN WORLD ACADEMY,HILL-FREEDMAN WORLD ACADEMY,1100 E MT PLEASANT AVE,19150,(215) 400-3530,,MIDDLE/HIGH,6-12,691,1,DISTRICT
269,126515001,3766,8270,"HOLME, THOMAS SCHOOL",THOMAS HOLME SCHOOL,9125 ACADEMY RD,19114,(215) 400-3130,,ELEMENTARY SCHOOL,K-6,611,1,DISTRICT
270,126515001,3742,7300,"HOPKINSON, FRANCIS SCHOOL",FRANCIS HOPKINSON SCHOOL,4001 L ST,19124,(215) 400-3970,,ELEMENTARY/MIDDLE,K-8,850,1,DISTRICT
271,126515001,3713,6260,"HOUSTON, HENRY H. SCHOOL",HENRY H. HOUSTON SCHOOL,7300 RURAL LN,19119,(215) 400-3490,,ELEMENTARY/MIDDLE,K-8,366,1,DISTRICT
272,126515001,3743,7320,"HOWE, JULIA WARD SCHOOL",JULIA W. HOWE SCHOOL,5800 N 13TH ST,19141,(215) 400-3650,,ELEMENTARY SCHOOL,K-5,253,1,DISTRICT
273,126515001,3693,5330,"HUNTER, WILLIAM H. SCHOOL",WILLIAM H. HUNTER SCHOOL,2400 N FRONT ST,19133,(215) 400-7110,,ELEMENTARY/MIDDLE,K-8,571,1,DISTRICT
274,126515001,3642,2510,"JACKSON, ANDREW SCHOOL",ANDREW JACKSON SCHOOL,1213 S 12TH ST,19147,(215) 400-7970,,ELEMENTARY/MIDDLE,K-8,569,1,DISTRICT
275,126515001,3714,6270,JENKS ACADEMY ARTS & SCIENCES,JENKS ACADEMY FOR ARTS AND SCIENCES,8301 GERMANTOWN AVE,19118,(215) 400-3360,,ELEMENTARY/MIDDLE,K-8,513,1,DISTRICT
276,126515001,7227,2520,"JENKS, ABRAM SCHOOL",ABRAM S. JENKS SCHOOL,2501 S 13TH ST,19148,(215) 400-8240,,ELEMENTARY SCHOOL,K-5,287,1,DISTRICT
277,126515001,7963,7150,JUNIATA PARK ACADEMY,JUNIATA PARK ACADEMY,801 E HUNTING PARK AVE,19124,(215) 400-7010,,ELEMENTARY/MIDDLE,K-8,1090,1,DISTRICT
278,126515001,3645,5480,"KEARNY, GEN. PHILIP SCHOOL",GENERAL PHILIP KEARNY SCHOOL,601 FAIRMOUNT AVE,19123,(215) 400-7590,,ELEMENTARY/MIDDLE,K-8,290,1,DISTRICT
279,126515001,3626,4560,"KELLEY, WILLIAM D. SCHOOL",WILLIAM D. KELLEY SCHOOL,1601 N 28TH ST,19121,(215) 400-7370,,ELEMENTARY/MIDDLE,K-8,297,1,DISTRICT
280,126515001,5294,6470,"KELLY, JOHN B. SCHOOL",JOHN B. KELLY SCHOOL,5116 PULASKI AVE,19144,(215) 400-3580,,ELEMENTARY SCHOOL,K-5,505,1,DISTRICT
281,126515001,3795,4360,KENDERTON ELEMENTARY,KENDERTON ELEMENTARY SCHOOL,1500 W ONTARIO ST,19140,(215) 400-8340,,ELEMENTARY/MIDDLE,K-8,473,1,DISTRICT
282,126515001,7852,5520,KENSINGTON CAPA,KENSINGTON HIGH SCHOOL FOR CREATIVE AND PERFORMING ARTS,1901 N FRONT ST,19122,(215) 400-7400,,HIGH SCHOOL,9-12,522,1,DISTRICT
283,126515001,7855,5550,KENSINGTON HEALTH SCIENCES,KENSINGTON HEALTH SCIENCES ACADEMY,2463 EMERALD ST,19125,(215) 400-3600,,HIGH SCHOOL,9-12,458,1,DISTRICT
284,126515001,8143,5700,KENSINGTON HIGH SCHOOL,KENSINGTON HIGH SCHOOL,2501 CORAL ST,19125,(215) 400-7700,,HIGH SCHOOL,9-12,483,1,DISTRICT
285,126515001,7228,2540,"KEY, FRANCIS SCOTT SCHOOL",FRANCIS S. KEY SCHOOL,2230 S 8TH ST,19148,(215) 400-8250,,ELEMENTARY SCHOOL,K-6,482,1,DISTRICT
286,126515001,6675,6060,"KING, MARTIN LUTHER HIGH SCHOOL",MARTIN LUTHER KING HIGH SCHOOL,6100 STENTON AVE,19138,(215) 400-3500,,HIGH SCHOOL,9-12,519,1,DISTRICT
287,126515001,3647,2580,"KIRKBRIDE, ELIZA B. SCHOOL",ELIZA B. KIRKBRIDE SCHOOL,1501 S 7TH ST,19147,(215) 400-7980,,ELEMENTARY/MIDDLE,K-8,533,1,DISTRICT
288,126515001,7472,4370,OVERBROOK ELEMENTARY SCHOOL,OVERBROOK SCHOOL,2032 N 62ND ST,19151,(215) 400-7520,,ELEMENTARY/MIDDLE,K-8,229,1,DISTRICT
289,126515001,3857,4020,OVERBROOK HIGH SCHOOL,OVERBROOK HIGH SCHOOL,5898 LANCASTER AVE,19131,(215) 400-7300,,HIGH SCHOOL,9-12,473,1,DISTRICT
290,126515001,7782,5080,PARKWAY CENTER CITY MIDDLE COLLEGE HIGH SCHOOL,PARKWAY CENTER CITY MIDDLE COLLEGE HIGH SCHOOL,540 N 13TH ST,19123,(215) 400-7620,,HIGH SCHOOL,9-12,487,1,DISTRICT
291,126515001,7808,5090,PARKWAY WEST HIGH SCHOOL,PARKWAY WEST HIGH SCHOOL,4725 FAIRMOUNT AVE,19139,(215) 400-7710,,HIGH SCHOOL,9-12,321,1,DISTRICT
292,126515001,6548,5070,PARKWAY-NORTHWEST HIGH SCHOOL,PARKWAY NORTHWEST HIGH SCHOOL,6200 CRITTENDEN ST,19138,(215) 400-3390,,HIGH SCHOOL,9-12,277,1,DISTRICT
293,126515001,3613,1400,"PATTERSON, JOHN M. SCHOOL",JOHN M. PATTERSON SCHOOL,7000 BUIST AVE,19142,(215) 400-8190,,ELEMENTARY SCHOOL,K-4,459,1,DISTRICT
294,126515001,3675,4380,"PEIRCE, THOMAS M. SCHOOL",THOMAS M. PEIRCE SCHOOL,2300 W CAMBRIA ST,19132,(215) 400-7020,,ELEMENTARY SCHOOL,K-6,351,1,DISTRICT
295,126515001,7706,1280,PENN ALEXANDER SCHOOL,SADIE ALEXANDER SCHOOL,4209 SPRUCE ST,19104,(215) 400-7760,,ELEMENTARY/MIDDLE,K-8,571,1,DISTRICT
296,126515001,7244,5160,PENN TREATY HIGH SCHOOL,PENN TREATY HIGH SCHOOL,600 E THOMPSON ST,19125,(215) 400-3800,,MIDDLE/HIGH,6-12,509,1,DISTRICT
297,126515001,3722,6340,"PENNELL, JOSEPH ELEMENTARY",JOSEPH PENNELL SCHOOL,1800 NEDRO AVE,19141,(215) 400-3680,,ELEMENTARY SCHOOL,K-5,380,1,DISTRICT
298,126515001,6539,6350,"PENNYPACKER, SAMUEL SCHOOL",SAMUEL PENNYPACKER SCHOOL,1858 E WASHINGTON LN,19138,(215) 400-3510,,ELEMENTARY/MIDDLE,K-8,357,1,DISTRICT
299,126515001,3616,1440,PENROSE SCHOOL,PENROSE SCHOOL,2515 S 78TH ST,19153,(215) 400-8310,,ELEMENTARY/MIDDLE,K-8,450,1,DISTRICT
300,126515001,7850,5050,PHILADELPHIA MILITARY ACADEMY,PHILADELPHIA MILITARY ACADEMY,2118 N 13TH ST,19122,(215) 400-7420,,HIGH SCHOOL,9-12,315,1,DISTRICT
301,126515001,,8780,PHILADELPHIA VIRTUAL ACADEMY,PHILADELPHIA VIRTUAL ACADEMY,440 N BROAD ST,19130,(215) 400-3110,,MIDDLE/HIGH,6-12,507,1,DISTRICT
302,126515001,3801,8410,"POLLOCK, ROBERT B. SCHOOL",ROBERT B. POLLOCK SCHOOL,2875 WELSH RD,19152,(215) 400-3210,,ELEMENTARY SCHOOL,K-6,613,1,DISTRICT
303,126515001,5121,5390,POTTER-THOMAS SCHOOL,POTTER-THOMAS SCHOOL,3001 N 6TH ST,19133,(215) 400-7120,,ELEMENTARY/MIDDLE,K-8,490,1,DISTRICT
304,226517602,,,DEPAUL CATHOLIC SCHOOL,DEPAUL CATHOLIC SCHOOL,44 W LOGAN ST,19144,(215) 842-1266,O,ELEMENTARY/MIDDLE,PREK-8,,3,PRIVATE
305,226510075,,,63RD STREET MULTICULTURAL ACADEMY OF ACADEMIC EXCELLENCE,63RD ST MULTICULTURAL ACADEMY OF ACADEMIC EXCELLENCE,1139 N 63RD ST,19151,(267) 977-2542,O,ELEMENTARY/MIDDLE/HIGH,PREK-12,,3,PRIVATE
306,226511242,,,LEGACY CHRISTIAN ACADEMY,LEGACY CHRISTIAN ACADEMY,6208-10 GRAYS AVE,19142,(215) 727-5000,O,ELEMENTARY/MIDDLE,PREK-7,,3,PRIVATE
307,226510051,,,INDIVIDUAL ASSESSMENT MANAGER RESOURCE ACADEMY,INDIVIDUAL ASSESSMENT MANAGER RESOURCE ACADEMY,7035 WOODLAND AVE,19142,(215) 729-0374,O,SPECIAL CENTER,UNGRADED,,3,PRIVATE
308,226510050,,,MIRACLE TEMPLE CHRISTIAN ACADEMY,MIRACLE TEMPLE CHRISTIAN ACADEMY,2600 TASKER ST,19145,(215) 755-3680,O,UNGRADED,UNGRADED,,3,PRIVATE
309,300519930,,,TWENTY-FIRST CENTURY CHRISTIAN ACADEMY,TWENTY-FIRST CENTURY CHRISTIAN ACADEMY,1253 S 18TH ST,19146,(610) 812-5166,O,PRE-SCHOOL,PRE-SCHOOL,,3,PRIVATE
310,226510009,,,TRUE GOSPEL TABERNACLE LEARNING CENTER,TRUE GOSPEL TABERNACLE LEARNING CENTER,1900 S 16TH ST,19145,(215) 334-3343,O,ELEMENTARY SCHOOL,PREK-4,,3,PRIVATE
311,226519632,,,TRINITY CHRISTIAN SCHOOL,TRINITY CHRISTIAN SCHOOL,2300-34 S 18TH ST,19145,(215) 334-6656,O,PRE-SCHOOL,PREK,,3,PRIVATE
312,,,3404,TACONY ACADEMY CHARTER SCHOOL,TACONY ACADEMY CHARTER SCHOOL (HIGH SCHOOL),6201 KEYSTONE ST,19135,(267) 388-8656,O,HIGH SCHOOL,9-12,,2,CHARTER
313,300517000,,,PENNSYLVANIA SCHOOL FOR THE DEAF,PENNSYLVANIA SCHOOL FOR THE DEAF,100-52 W SCHOOL HOUSE LA,19144,(215) 951-4700,O,ELEMENTARY/MIDDLE/HIGH,PREK-12,,3,PRIVATE
314,300516590,,,OVERBROOK SCHOOL FOR BLIND,OVERBROOK SCHOOL FOR BLIND,6333 MALVERN AVE,19151,(215) 877-0313,O,ELEMENTARY/MIDDLE/HIGH,PREK-12,,3,PRIVATE
315,226511852,,,GIRARD COLLEGE,GIRARD COLLEGE,2101 S COLLEGE AVE,19121,(215) 787-2600,O,ELEMENTARY/MIDDLE/HIGH,1-12,,3,PRIVATE
316,226515832,,,THE CITY SCHOOL AT SPRUCE HILL,THE CITY SCHOOL AT SPRUCE HILL,4115 BALTIMORE AVE,19104,(215) 382-7839,O,ELEMENTARY SCHOOL,K-5,,3,PRIVATE
317,226510047,,,NEW HOPE CHRISTIAN ACADEMY,NEW HOPE CHRISTIAN ACADEMY,1345 MCFERRAN STREET,19140,(215) 391-0003,O,ELEMENTARY/MIDDLE/HIGH,PREK-12,,3,PRIVATE
318,326510170,,,BRIDGE WAY SCHOOL,BRIDGE WAY SCHOOL,7360 JACKSON ST,19136,(267) 437-2194,O,UNGRADED,9-12,,3,PRIVATE
319,326510062,,,SEEDLINGS EARLY CARE AND EDUCATION PROGRAM,SEEDLINGS EARLY CARE AND EDUCATION PROGRAM,3300 HENRY AVE,19129,(215) 254-2002,O,PRE-SCHOOL,PREK,,3,PRIVATE
320,300516560,,,OVERBROOK PRESBYTERIAN CHURCH PRESCHOOL & KINDERGARTEN,OVERBROOK PRESBYTERIAN CHURCH PRESCHOOL & KINDERGARTEN,6376-78 CITY AVE,19151,215) 877-8945,O,KINDERGARTEN,PREK-K,,3,PRIVATE
321,326510175,,,ANN KIDS,ANN KIDS,10100 JAMISON AVE,19116,(215) 869-0207,O,PRE-SCHOOL,PRE-SCHOOL,,3,PRIVATE
322,300515921,,,METHODIST SERVICES FOR CHILDREN AND FAMILIES,METHODIST SERVICES FOR CHILDREN AND FAMILIES,4300 MONUMENT RD,19131,(215) 877-1925,O,KINDERGARTEN,PREK-K,,3,PRIVATE
323,126515001,3835,7130,"WAGNER, GEN. LOUIS MIDDLE SCH.",GENERAL LOUIS WAGNER SCHOOL,1701 CHELTEN AVE,19126,(215) 400-3560,,MIDDLE SCHOOL,6-8,481,1,DISTRICT
324,126515001,7225,2490,"WARING, LAURA W. SCHOOL",LAURA W. WARING SCHOOL,1801 GREEN ST,19130,(215) 400-7560,,ELEMENTARY/MIDDLE,K-8,278,1,DISTRICT
325,126515001,6527,8030,"WASHINGTON, GEORGE HIGH SCHOOL",GEORGE WASHINGTON HIGH SCHOOL,10175 BUSTLETON AVE,19116,(215) 400-3100,,HIGH SCHOOL,9-12,1396,1,DISTRICT
326,126515001,7663,7370,"WASHINGTON, GROVER JR. MIDDLE","GROVER WASHINGTON, JR. SCHOOL",201 E OLNEY AVE,19120,(215) 400-3820,,MIDDLE SCHOOL,5-8,579,1,DISTRICT
327,126515001,3615,1420,"WASHINGTON, MARTHA SCHOOL",MARTHA WASHINGTON SCHOOL,766 N 44TH ST,19104,(215) 400-7770,,ELEMENTARY/MIDDLE,K-8,284,1,DISTRICT
328,126515001,5124,5590,"WEBSTER, JOHN H. SCHOOL",JOHN H. WEBSTER SCHOOL,3400 FRANKFORD AVE,19134,(215) 400-7170,,ELEMENTARY SCHOOL,K-5,635,1,DISTRICT
329,126515001,3703,5420,"WELSH, JOHN SCHOOL",JOHN WELSH SCHOOL,2331 N 4TH ST,19133,(215) 400-7130,,ELEMENTARY/MIDDLE,K-8,333,1,DISTRICT
330,126515001,3860,1020,WEST PHILADELPHIA HIGH SCHOOL,WEST PHILADELPHIA HIGH SCHOOL,4901 CHESTNUT ST,19139,(215) 400-7900,,HIGH SCHOOL,9-12,415,1,DISTRICT
331,126513150,7574,3328,"MATH, SCIENCE AND TECHNOLOGY","MATHEMATICS, SCIENCE, AND TECHNOLOGY COMMUNITY CHARTER SCHOOL (MAST)",1800 BYBERRY RD,19116,(267) 348-1100,,ELEMENTARY/MIDDLE/HIGH,K-12,1446,2,CHARTER
332,126519392,8257,3423,MEMPHIS ST. CHARTER @ JP JONES,MEMPHIS STREET ACADEMY CHARTER SCHOOL AT J.P. JONES,2950 MEMPHIS ST,19134,(215) 291-4709,,MIDDLE SCHOOL,5-8,723,2,CHARTER
333,126513000,7546,3312,MULTI-CULTURAL ACADEMY,MULTICULTURAL ACADEMY CHARTER SCHOOL,3821 N BROAD ST,19140,(215) 227-0513,,HIGH SCHOOL,9-12,263,2,CHARTER
334,126513420,7649,3334,NEW FOUNDATIONS CHARTER SCHOOL,NEW FOUNDATIONS CHARTER SCHOOL,8001 TORRESDALE AVE,19136,(215) 624-8100,,ELEMENTARY/MIDDLE/HIGH,K-12,1554,2,CHARTER
335,,,3850,NORTHEAST HIGH SCHOOL EOP,NORTHEAST HIGH SCHOOL EOP,1601 COTTMAN AVE,19111,(215) 400-3200,,HIGH SCHOOL,9-12,144,1,DISTRICT
336,126510019,7856,3386,NORTHWOOD CHARTER SCHOOL,NORTHWOOD ACADEMY CHARTER SCHOOL,4621 CASTOR AVE,19124,(215) 289-5606,,ELEMENTARY/MIDDLE,K-8,768,2,CHARTER
337,,,8070,OIC CADI,OIC CADI,444 N 3RD ST,19123,(215) 567-2410,,HIGH SCHOOL,9-12,121,1,CONTRACTED
338,,,3540,OMBUDSMAN ACCELERATED NORTHWST,OMBUDSMAN NORTHWEST,2111 EASTBURN AVE,19138,(215) 924-8950,,HIGH SCHOOL,9-12,56,1,CONTRACTED
339,,,3810,ONE BRIGHT RAY-ELMWOOD CAMPUS,ONE BRIGHT RAY - ELMWOOD CAMPUS,6404 ELMWOOD AVE,19142,(215) 488-1177,,HIGH SCHOOL,9-12,134,1,CONTRACTED
340,,,8190,ONE BRIGHT RAY-FAIRHILL CAMPUS,ONE BRIGHT RAY - FAIRHILL CAMPUS,2820 N 4TH ST,19133,(215) 423-1776,,HIGH SCHOOL,9-12,285,1,CONTRACTED
341,,,8890,ONE BRIGHT RAY-SIMPSON CAMPUS,ONE BRIGHT RAY - SIMPSON CAMPUS,1142 E ERIE AVE,19124,(215) 744-6000,,HIGH SCHOOL,9-12,274,1,CONTRACTED
342,173515368,7985,3394,PAN AMERICAN ACADEMY CHARTER,PAN AMERICAN ACADEMY CHARTER SCHOOL,2830 N AMERICAN ST,19133,(215) 425-1212,,ELEMENTARY/MIDDLE,K-8,762,2,CHARTER
343,,,8540,PENNYPACK HOUSE SCHOOL,PENNYPACK HOUSE SCHOOL,7901 STATE RD,19136,(215) 685-7752,,HIGH SCHOOL,9-12,36,1,DISTRICT
344,126515001,4726,8430,"GREENBERG, JOSEPH SCHOOL",JOSEPH GREENBERG SCHOOL,600 SHARON LN,19115,(215) 400-3080,,ELEMENTARY/MIDDLE,K-8,829,1,DISTRICT
345,126515001,5186,2470,"GREENFIELD, ALBERT M. SCHOOL",ALBERT M. GREENFIELD SCHOOL,2200 CHESTNUT ST,19103,(215) 400-7810,,ELEMENTARY/MIDDLE,K-8,685,1,DISTRICT
346,126515001,5120,5300,"HACKETT, HORATIO B. SCHOOL",HORATIO B. HACKETT SCHOOL,2161 E YORK ST,19125,(215) 400-7470,,ELEMENTARY SCHOOL,K-5,356,1,DISTRICT
347,126515001,5185,1290,"HAMILTON, ANDREW SCHOOL",ANDREW HAMILTON SCHOOL,5640 SPRUCE ST,19139,(215) 400-7650,,ELEMENTARY/MIDDLE,K-8,518,1,DISTRICT
348,126515001,5041,8770,HANCOCK DEMONSTRATION SCHOOL,JOHN HANCOCK DEMONSTRATION SCHOOL,3700 MORRELL AVE,19114,(215) 400-3120,,ELEMENTARY/MIDDLE,K-8,778,1,DISTRICT
349,126515001,7242,7110,"HARDING, WARREN G. MIDDLE SCHOOL",WARREN G. HARDING SCHOOL,2000 WAKELING ST,19124,(215) 400-3990,,MIDDLE SCHOOL,6-8,767,1,DISTRICT
350,126515001,6528,1300,"HARRINGTON, AVERY D. SCHOOL",AVERY D. HARRINGTON SCHOOL,5300 BALTIMORE AVE,19143,(215) 400-7920,,ELEMENTARY/MIDDLE,K-8,475,1,DISTRICT
351,126515001,5125,5320,"HARTRANFT, JOHN F. SCHOOL",JOHN F. HARTRANFT SCHOOL,720 W CUMBERLAND ST,19133,(215) 400-7090,,ELEMENTARY/MIDDLE,K-8,470,1,DISTRICT
352,126515001,3712,6250,"HENRY, CHARLES W. SCHOOL",CHARLES W. HENRY SCHOOL,601 CARPENTER LN,19119,(215) 400-3480,,ELEMENTARY/MIDDLE,K-8,519,1,DISTRICT
353,126515001,5187,4300,"HESTON, EDWARD SCHOOL",EDWARD HESTON SCHOOL,1621 N 54TH ST,19131,(215) 400-7290,,ELEMENTARY/MIDDLE,K-8,433,1,DISTRICT
354,126515001,7810,4320,"LAMBERTON,ROBERT E ELEMENTARY",ROBERT E. LAMBERTON SCHOOL,7501 WOODBINE AVE,19151,(215) 400-7530,,ELEMENTARY/MIDDLE,K-8,416,1,DISTRICT
355,126515001,7811,6540,LANKENAU HIGH SCHOOL,LANKENAU HIGH SCHOOL,201 SPRING LANE,19128,(215) 400-3420,,HIGH SCHOOL,9-12,349,1,DISTRICT
356,126515001,3744,7330,"LAWTON, HENRY W. SCHOOL",HENRY W. LAWTON SCHOOL,6101 JACKSON ST,19135,(215) 400-3340,,ELEMENTARY SCHOOL,K-5,665,1,DISTRICT
357,126515001,6530,1340,"LEA, HENRY C.",HENRY C. LEA SCHOOL,4700 LOCUST ST,19139,(215) 400-7660,,ELEMENTARY/MIDDLE,K-8,536,1,DISTRICT
358,126515001,3845,8010,"LINCOLN, ABRAHAM HIGH SCHOOL",ABRAHAM LINCOLN HIGH SCHOOL,3201 RYAN AVE,19136,(215) 400-3300,,HIGH SCHOOL,9-12,1963,1,DISTRICT
359,126515001,3717,6440,"LINGELBACH, ANNA L. SCHOOL",ANNA L. LINGELBACH SCHOOL,6340 WAYNE AVE,19144,(215) 400-3630,,ELEMENTARY/MIDDLE,K-8,392,1,DISTRICT
360,126515001,4732,1470,"LOCKE, ALAIN SCHOOL",ALAIN LOCKE SCHOOL,4550 HAVERFORD AVE,19139,(215) 400-7670,,ELEMENTARY/MIDDLE,K-8,442,1,DISTRICT
361,126515001,4961,8440,"LOESCHE, WILLIAM H. SCHOOL",WILLIAM H. LOESCHE SCHOOL,595 TOMLINSON RD,19116,(215) 400-3020,,ELEMENTARY SCHOOL,K-5,881,1,DISTRICT
362,126515001,3718,6300,"LOGAN, JAMES SCHOOL",JAMES LOGAN SCHOOL,1700 LINDLEY AVE,19141,(215) 400-3670,,ELEMENTARY SCHOOL,K-5,324,1,DISTRICT
363,126515001,6533,1350,"LONGSTRETH, WILLIAM C. SCHOOL",WILLIAM C. LONGSTRETH SCHOOL,5700 WILLOWS AVE,19143,(215) 400-7870,,ELEMENTARY/MIDDLE,K-8,336,1,DISTRICT
364,126515001,7232,7350,"LOWELL, JAMES R. SCHOOL",JAMES R. LOWELL SCHOOL,450 W NEDRO AVE,19120,(215) 400-3740,,ELEMENTARY SCHOOL,K-4,686,1,DISTRICT
365,126515001,3694,5340,"LUDLOW, JAMES R. SCHOOL",JAMES R. LUDLOW SCHOOL,550 W MASTER ST,19122,(215) 400-7430,,ELEMENTARY/MIDDLE,K-8,270,1,DISTRICT
366,126515001,3797,7360,"MARSHALL, JOHN SCHOOL",JOHN MARSHALL SCHOOL,4500 GRISCOM ST,19124,(215) 400-3950,,ELEMENTARY SCHOOL,K-5,369,1,DISTRICT
367,126515001,7521,5500,"MARSHALL, THURGOOD SCHOOL",THURGOOD MARSHALL SCHOOL,5120 N 6TH ST,19120,(215) 400-3770,,ELEMENTARY/MIDDLE,K-8,692,1,DISTRICT
368,126515001,3842,5060,"MASTBAUM, JULES E. HIGH SCHOOL",JULES E. MASTBAUM AREA VOCATIONAL TECHNICAL HIGH SCHOOL,3116 FRANKFORD AVE,19134,(215) 400-7220,,HIGH SCHOOL,9-12,631,1,DISTRICT
369,126515001,3808,2140,"MASTERMAN,JULIA R. HIGH SCHOOL",JULIA R. MASTERMAN SCHOOL,1699 SPRING GARDEN ST,19130,(215) 400-7580,,MIDDLE/HIGH,5-12,1206,1,DISTRICT
370,126515001,3769,8300,MAYFAIR SCHOOL,MAYFAIR SCHOOL,3001 PRINCETON AVE,19149,(215) 400-3280,,ELEMENTARY/MIDDLE,K-8,2208,1,DISTRICT
371,126515001,3648,2340,"MC CALL, GEN. GEORGE A. SCHOOL",GENERAL GEORGE A. MCCALL SCHOOL,325 S 7TH ST,19106,(215) 400-7840,,ELEMENTARY/MIDDLE,K-8,691,1,DISTRICT
372,126515001,6534,7380,"MC CLURE, ALEXANDER K. SCHOOL",ALEXANDER K. MCCLURE SCHOOL,600 W HUNTING PARK AVE,19140,(215) 400-3870,,ELEMENTARY SCHOOL,K-5,621,1,DISTRICT
373,126515001,3611,1360,"MC MICHAEL, MORTON SCHOOL",MORTON MCMICHAEL SCHOOL,3543 FAIRMOUNT AVE,19104,(215) 400-7750,,ELEMENTARY/MIDDLE,K-8,345,1,DISTRICT
374,126515001,3719,6310,"MCCLOSKEY, JOHN F. SCHOOL",JOHN F. MCCLOSKEY SCHOOL,8500 PICKERING ST,19150,(215) 400-3380,,ELEMENTARY/MIDDLE,K-8,344,1,DISTRICT
375,,,3040,EXCEL MIDDLE YEARS ACADEMY,EXCEL MIDDLE YEARS ACADEMY,4300 WESTMINSTER AVE,19104,(215) 436-0307,,MIDDLE SCHOOL,6-8,74,1,CONTRACTED
376,100510000,7744,3364,FIRST PHILADELPHIA CHARTER,FIRST PHILADELPHIA PREPARATORY CHARTER SCHOOL,4300 TACONY ST,19124,(215) 743-3100,,ELEMENTARY/MIDDLE/HIGH,K-12,1905,2,CHARTER
377,126510021,7857,3384,FOLK ARTS CULTURAL TREASURES,FOLK ARTS-CULTURAL TREASURES CHARTER SCHOOL,1023 CALLOWHILL ST,19123,(215) 569-2600,,ELEMENTARY/MIDDLE,K-8,503,2,CHARTER
378,126515001,,3210,FRANKLIN HIGH SCHOOL EOP,BEN FRANKLIN HIGH SCHOOL EOP,540 N 13TH ST,19130,(215) 400-7600,,HIGH SCHOOL,9-12,118,1,DISTRICT
379,126513450,7666,3331,FRANKLIN TOWNE CHARTER SCHOOL,FRANKLIN TOWNE CHARTER HIGH SCHOOL,5301 TACONY ST,19137,(215) 289-5000,,HIGH SCHOOL,9-12,1192,2,CHARTER
380,147513703,8123,3403,FRANKLIN TOWNE ELEMENTARY,FRANKLIN TOWNE CHARTER ELEMENTARY SCHOOL,4259 RICHMOND ST,19137,(215) 289-3389,,ELEMENTARY/MIDDLE,K-8,954,2,CHARTER
381,126513270,7586,3318,FREIRE CHARTER SCHOOL,FREIRE CHARTER SCHOOL,2027 CHESTNUT ST,19103,(215) 557-8555,,MIDDLE/HIGH,9-12,1022,2,CHARTER
382,126518004,,3428,G.L.A. CHARTER @ HUEY,GLOBAL LEADERSHIP ACADEMY AT HUEY,5200 PINE ST,19143,(215) 471-2978,,ELEMENTARY/MIDDLE,K-8,618,2,CHARTER
383,,,8100,GATEWAY TO COLLEGE,GATEWAY TO COLLEGE - COMMUNITY COLLEGE OF PHILADELPHIA,1700 SPRING GARDEN ST RM M1-24,19130,(215) 751-8540,,HIGH SCHOOL,9-12,76,1,CONTRACTED
384,126513380,7639,3337,GLOBAL LEADERSHIP ACADEMY,GLOBAL LEADERSHIP ACADEMY CHARTER SCHOOL,4601 W GIRARD AVE,19131,(267) 295-5700,,ELEMENTARY/MIDDLE,K-8,690,2,CHARTER
385,126510005,7748,3365,GREEN WOODS CHARTER SCHOOL,GREEN WOODS CHARTER SCHOOL,468 DOMINO LANE,19128,(215) 482-6337,,ELEMENTARY/MIDDLE,K-8,683,2,CHARTER
386,126512850,7511,3302,HARAMBEE INSTITUTE OF SCIENCE,HARAMBEE INSTITUTE OF SCIENCE AND TECHNOLOGY CHARTER SCHOOL,640 N 66TH ST,19151,(215) 472-8770,,ELEMENTARY/MIDDLE,K-8,565,2,CHARTER
387,126513290,7588,3323,MASTERY CHARTER AT HARDY WILLIAMS,MASTERY CHARTER SCHOOL AT HARDY WILLIAMS,5400 WARRINGTON AVE,19143,(215) 724-2343,,ELEMENTARY/MIDDLE/HIGH,K-12,1161,2,CHARTER
388,126512980,7542,3309,IMHOTEP CHARTER SCHOOL,IMHOTEP INSTITUTE CHARTER HIGH SCHOOL,6201 N 21ST ST,19138,(215) 438-4140,,HIGH SCHOOL,9-12,579,2,CHARTER
389,126513510,7683,3341,INDEPENDENCE CHARTER SCHOOL,INDEPENDENCE CHARTER SCHOOL,1600 LOMBARD ST,19146,(215) 238-8000,,ELEMENTARY/MIDDLE,K-8,824,2,CHARTER
390,126512039,,3442,INDEPENDENCE CHARTER WEST,INDEPENDENCE CHARTER SCHOOL WEST,5600 CHESTER AVE,19143,(215) 724-5600,,ELEMENTARY SCHOOL,K-6,619,2,CHARTER
391,126513070,,3308,INQUIRY CHARTER SCHOOL,INQUIRY CHARTER SCHOOL,1301 BELMONT AVE,19104,(215) 823-5541,,ELEMENTARY SCHOOL,K-5,273,2,CHARTER
392,182514568,7979,3389,KEYSTONE ACADEMY CHARTER,KEYSTONE ACADEMY CHARTER SCHOOL,4521 LONGSHORE AVE,19135,(215) 332-2111,,ELEMENTARY/MIDDLE,K-8,676,2,CHARTER
393,126514864,,3353,KIPP DUBOIS CHARTER SCHOOL,KIPP DUBOIS CHARTER SCHOOL,5070 PARKSIDE AVE,19131,(215) 307-3465,,HIGH SCHOOL,9-12,554,2,CHARTER
394,126510013,7776,3370,KIPP PHILADELPHIA CHARTER,KIPP PHILADELPHIA CHARTER SCHOOL,2539 N 16TH ST,19132,(267) 758-2630,,ELEMENTARY/MIDDLE,K-8,867,2,CHARTER
395,126515492,,3443,KIPP WEST PHILA CHARTER SCHOOL,KIPP WEST PHILADELPHIA CHARTER SCHOOL,5900 BALTIMORE AVE,19143,(267) 787-5700,,MIDDLE SCHOOL,5-8,360,2,CHARTER
396,172510793,8124,3396,KIPP WEST PHILA PREP CHARTER,KIPP WEST PHILADELPHIA PREPARATORY CHARTER SCHOOL,5900 BALTIMORE AVE,19143,(215) 294-2973,,MIDDLE SCHOOL,5-8,348,2,CHARTER
397,126513110,7565,3310,LAB SCH OF COMMUNICAT'N & LANG,LABORATORY CHARTER SCHOOL OF COMMUNICATION AND LANGUAGES,800 NORTH ORIANNA ST,19123,(215) 574-1680,,ELEMENTARY/MIDDLE,K-8,531,2,CHARTER
398,,,3240,LIGUORI ACADEMY-FORTIS,LIGUORI ACADEMY-FORTIS,1952 E ALLEGHENY AVE,19134,(267) 571-1952,,HIGH SCHOOL,9-12,97,1,CONTRACTED
399,126519476,8206,3419,LINDLEY ACADEMY CHARTER @ BIRNEY,LINDLEY ACADEMY CHARTER @ BIRNEY,900 LINDLEY AVE,19141,(215) 456-3000,,ELEMENTARY/MIDDLE,K-8,726,2,CHARTER
400,126513480,7672,3332,MARIANA BRACETTI ACADEMY,MARIANA BRACETTI ACADEMY CHARTER SCHOOL,1840 TORRESDALE AVE,19124,(215) 291-4436,,ELEMENTARY/MIDDLE/HIGH,K-12,1336,2,CHARTER
401,126510014,7777,3366,MARITIME ACADEMY CHARTER,MARITIME ACADEMY CHARTER SCHOOL (MACHS),2275 BRIDGE ST,19137,(215) 535-4555,,ELEMENTARY/MIDDLE/HIGH,1-12,870,2,CHARTER
402,126513117,,3440,MAST COMMUNITY CHARTER II,MAST COMMUNITY CHARTER SCHOOL II,6501 NEW STATE RD,19135,(215) 398-7960,,ELEMENTARY SCHOOL,K-6,980,2,CHARTER
403,126519644,8259,3420,MASTERY CHARTER @ CLEVELAND,MASTERY CHARTER SCHOOL AT CLEVELAND,3701 N 19TH ST,19140,(215) 227-5042,,ELEMENTARY/MIDDLE,K-8,734,2,CHARTER
404,126511748,8208,3415,MASTERY CHARTER @ CLYMER,MASTERY CHARTER SCHOOL AT CLYMER,1201 W RUSH ST,19133,(215) 223-2243,,ELEMENTARY SCHOOL,K-6,539,2,CHARTER
405,126513734,8207,3416,MASTERY CHARTER @ GRATZ HIGH,MASTERY CHARTER SCHOOL AT GRATZ,1798 W HUNTING PARK AVE,19140,(215) 227-4408,,MIDDLE/HIGH,7-12,1272,2,CHARTER
406,126516457,8153,3407,MASTERY CHARTER @ HARRITY,MASTERY CHARTER SCHOOL AT HARRITY,5601 CHRISTIAN ST,19143,(215) 471-2908,,ELEMENTARY/MIDDLE,K-8,823,2,CHARTER
407,126519433,8152,3408,MASTERY CHARTER @ MANN,MASTERY CHARTER SCHOOL AT MANN,5376 W BERKS ST,19131,(215) 581-5616,,ELEMENTARY SCHOOL,K-6,557,2,CHARTER
408,126518795,3721,3426,MASTERY CHARTER @ PASTORIUS,MASTERY CHARTER SCHOOL AT PASTORIUS,5650 SPRAGUE ST,19138,(215) 951-5689,,ELEMENTARY/MIDDLE,K-8,620,2,CHARTER
409,151514721,7961,3393,MASTERY CHARTER @ PICKETT,MASTERY CHARTER SCHOOL AT PICKETT,5700 WAYNE AVE,19144,(215) 866-9000,,MIDDLE/HIGH,6-12,895,2,CHARTER
410,126515001,3783,1390,"POWEL, SAMUEL SCHOOL",SAMUEL POWEL SCHOOL,301 N 36TH ST,19104,(215) 400-7740,,ELEMENTARY SCHOOL,K-4,243,1,DISTRICT
411,126515001,6765,7490,PRINCE HALL SCHOOL,PRINCE HALL SCHOOL,6101 N GRATZ ST,19141,(215) 400-3690,,ELEMENTARY SCHOOL,K-5,538,1,DISTRICT
412,126515001,7813,6090,RANDOLPH TECHNICAL HIGH SCHOOL,A. PHILIP RANDOLPH CAREER AND TECHNICAL HIGH SCHOOL,3101 HENRY AVE,19129,(215) 400-3840,,HIGH SCHOOL,9-12,370,1,DISTRICT
413,126515001,3771,8360,RHAWNHURST SCHOOL,RHAWNHURST SCHOOL,7809 CASTOR AVE,19152,(215) 400-3220,,ELEMENTARY SCHOOL,K-5,626,1,DISTRICT
414,126515001,3614,1410,"RHOADS, JAMES SCHOOL",JAMES RHOADS SCHOOL,4901 PARRISH ST,19139,(215) 400-7680,,ELEMENTARY/MIDDLE,K-8,451,1,DISTRICT
415,126515001,6522,4350,RHODES ELEMENTARY SCHOOL,E. WASHINGTON RHODES SCHOOL,2900 W CLEARFIELD ST,19132,(215) 400-7060,,ELEMENTARY/MIDDLE,K-8,479,1,DISTRICT
416,126515001,3701,5400,RICHMOND SCHOOL,RICHMOND SCHOOL,2944 BELGRADE ST,19134,(215) 400-7150,,ELEMENTARY SCHOOL,K-5,510,1,DISTRICT
417,126515001,7780,1050,"ROBESON, PAUL HIGH SCHOOL",PAUL ROBESON HIGH SCHOOL FOR HUMAN SERVICES,4125 LUDLOW ST,19104,(215) 400-7780,,HIGH SCHOOL,9-12,312,1,DISTRICT
418,126515001,3824,6360,ROOSEVELT ELEMENTARY SCHOOL,THEODORE ROOSEVELT SCHOOL,430 E WASHINGTON LN,19144,(215) 400-3640,,ELEMENTARY/MIDDLE,K-8,459,1,DISTRICT
419,126515001,3724,7530,"ROWEN, WILLIAM SCHOOL",WILLIAM ROWEN SCHOOL,6841 N 19TH ST,19126,(215) 400-3550,,ELEMENTARY SCHOOL,K-5,411,1,DISTRICT
420,126515001,3844,6030,ROXBOROUGH HIGH SCHOOL,ROXBOROUGH HIGH SCHOOL,6498 RIDGE AVE,19128,(215) 400-3400,,HIGH SCHOOL,9-12,779,1,DISTRICT
421,126515001,3861,6040,"SAUL, WALTER B. HIGH SCHOOL",WALTER B. SAUL HIGH SCHOOL,7100 HENRY AVE,19128,(215) 400-3450,,HIGH SCHOOL,9-12,513,1,DISTRICT
422,126515001,7245,1100,"SAYRE, WILLIAM L. HIGH SCHOOL",WILLIAM L. SAYRE HIGH SCHOOL,5800 WALNUT ST,19139,(215) 400-7800,,HIGH SCHOOL,9-12,410,1,DISTRICT
423,126515001,,2680,SCIENCE LEADERSHIP ACADEMY AT BEEBER,THE SCIENCE LEADERSHIP ACADEMY AT BEEBER,5925 MALVERN AVE,19131,(215) 400-7270,,MIDDLE/HIGH,"5-6, 9-12",602,1,DISTRICT
424,126515001,7906,2650,SCIENCE LEADERSHIP ACADEMY,SCIENCE LEADERSHIP ACADEMY,440 N BROAD ST,19130,(215) 400-7830,,HIGH SCHOOL,9-12,499,1,DISTRICT
425,126515001,,2050,SCIENCE LEADERSHIP ACADEMY MIDDLE SCHOOL,SCIENCE LEADERSHIP ACADEMY MIDDLE SCHOOL,3600 MARKET ST,19104,(215) 400-8320,,MIDDLE SCHOOL,5-8,356,1,DISTRICT
426,126515001,3653,2630,"SHARSWOOD, GEORGE SCHOOL",GEORGE W. SHARSWOOD SCHOOL,2300 S 2ND ST,19148,(215) 400-8270,,ELEMENTARY/MIDDLE,K-8,472,1,DISTRICT
427,126515001,3725,6380,SHAWMONT SCHOOL,SHAWMONT SCHOOL,535 SHAWMONT AVE,19128,(215) 400-3440,,ELEMENTARY/MIDDLE,K-8,480,1,DISTRICT
428,126515001,3702,5410,"SHEPPARD, ISAAC A. SCHOOL",ISAAC A. SHEPPARD SCHOOL,120 W CAMBRIA ST,19133,(215) 400-7070,,ELEMENTARY SCHOOL,K-4,163,1,DISTRICT
429,126515001,3800,5530,"SHERIDAN, PHILIP H. SCHOOL",PHILIP H. SHERIDAN SCHOOL,800 E ONTARIO ST,19134,(215) 400-7160,,ELEMENTARY SCHOOL,K-4,550,1,DISTRICT
430,126515001,3773,8340,"SOLIS-COHEN, SOLOMON SCHOOL",SOLOMON SOLIS-COHEN SCHOOL,7001 HORROCKS ST,19149,(215) 400-3250,,ELEMENTARY SCHOOL,K-5,1245,1,DISTRICT
431,126515001,3859,2000,SOUTH PHILADELPHIA HIGH SCHOOL,SOUTH PHILADELPHIA HIGH SCHOOL,2101 S BROAD ST,19148,(215) 400-8400,,HIGH SCHOOL,9-12,607,1,DISTRICT
432,126515001,3654,2640,SOUTHWARK SCHOOL,SOUTHWARK SCHOOL,1835 S 9TH ST,19148,(215) 400-8280,,ELEMENTARY/MIDDLE,K-8,892,1,DISTRICT
433,126515001,3655,5560,SPRING GARDEN SCHOOL,SPRING GARDEN SCHOOL,1146 MELON ST,19123,(215) 400-7610,,ELEMENTARY/MIDDLE,K-8,292,1,DISTRICT
434,126515001,7234,8350,"SPRUANCE, GILBERT SCHOOL",GILBERT SPRUANCE SCHOOL,6401 HORROCKS ST,19149,(215) 400-3290,,ELEMENTARY/MIDDLE,K-8,1370,1,DISTRICT
435,126515001,3635,2450,"STANTON, EDWIN M. SCHOOL",EDWIN M. STANTON SCHOOL,901 S 17TH ST,19146,(215) 400-7960,,ELEMENTARY/MIDDLE,K-8,301,1,DISTRICT
436,126515001,4963,7290,"STEARNE, ALLEN M. SCHOOL",ALLEN M. STEARNE SCHOOL,1655 UNITY ST,19124,(215) 400-3980,,ELEMENTARY/MIDDLE,K-8,514,1,DISTRICT
437,126515001,3727,6390,"STEEL, EDWARD SCHOOL",EDWARD T. STEEL SCHOOL,4301 WAYNE AVE,19140,(215) 400-3910,,ELEMENTARY/MIDDLE,K-8,429,1,DISTRICT
438,126515001,7255,4140,STRAWBERRY MANSION HIGH SCHOOL,STRAWBERRY MANSION HIGH SCHOOL,3133 RIDGE AVE,19121,(215) 400-7500,,HIGH SCHOOL,10-12,166,1,DISTRICT
439,126515001,3753,7430,"SULLIVAN, JAMES J. SCHOOL",JAMES J. SULLIVAN SCHOOL,5300 DITMAN ST,19124,(215) 400-3960,,ELEMENTARY SCHOOL,K-5,608,1,DISTRICT
440,126515001,7072,8090,SWENSON ARTS/TECH HIGH SCHOOL,SWENSON ARTS AND TECHNOLOGY HIGH SCHOOL,2750 RED LION RD,19114,(215) 400-3140,,HIGH SCHOOL,9-12,626,1,DISTRICT
441,126515001,3657,2690,"TAGGART, JOHN H. SCHOOL",JOHN H. TAGGART SCHOOL,400 W PORTER ST,19148,(215) 400-8290,,ELEMENTARY/MIDDLE,K-8,456,1,DISTRICT
442,126515001,3755,7440,"TAYLOR, BAYARD SCHOOL",BAYARD TAYLOR SCHOOL,3698 N RANDOLPH ST,19140,(215) 400-3880,,ELEMENTARY SCHOOL,K-5,501,1,DISTRICT
443,126515001,,5660,THE LINC,THE LINC,122 W ERIE AVE,19140,(215) 400-3940,,HIGH SCHOOL,9-12,216,1,DISTRICT
444,126515001,,5620,THE U SCHOOL,THE U SCHOOL,2000 N 7TH ST,19122,(215) 400-7460,,HIGH SCHOOL,9-12,238,1,DISTRICT
445,126515001,8328,8560,THE WORKSHOP SCHOOL,THE WORKSHOP SCHOOL,221 S HANSON ST,19139,(215) 400-7730,,HIGH SCHOOL,9-12,227,1,DISTRICT
446,126515001,3832,1130,TILDEN MIDDLE SCHOOL,WILLIAM T. TILDEN SCHOOL,6601 ELMWOOD AVE,19142,(215) 400-8170,,MIDDLE SCHOOL,5-8,382,1,DISTRICT
447,126515001,3659,2720,VARE-WASHINGTON ELEMENTARY,VARE-WASHINGTON SCHOOL,1198 S 5TH ST,19147,(215) 400-8120,,ELEMENTARY/MIDDLE,K-8,372,1,DISTRICT
448,126515001,,5180,VAUX HIGH SCHOOL,VAUX HIGH SCHOOL: A BIG PICTURE,2300 W MASTER ST,19121,(267) 507-9690,,HIGH SCHOOL,9-11,309,1,DISTRICT
449,126510004,7685,3335,PEOPLE FOR PEOPLE,PEOPLE FOR PEOPLE CHARTER SCHOOL,800 N BROAD ST,19130,(215) 763-7060,,ELEMENTARY/MIDDLE/HIGH,K-12,541,2,CHARTER
450,,,2530,PHILADELPHIA JUVENILE JUSTICE SERVICES CENTER,PHILADELPHIA JUVENILE JUSTICE SERVICES CENTER SCHOOL,91 N 48TH ST,19139,(215) 683-3495,,MIDDLE/HIGH,6-12,117,1,DISTRICT
451,126515001,,8470,PHILADELPHIA LEARNING ACADEMY-NORTH,PHILADELPHIA LEARNING ACADEMY NORTH,4224 N FRONT ST,19140,(215) 400-9050,,HIGH SCHOOL,8-12,39,1,DISTRICT
452,126515001,8121,8460,PHILADELPHIA LEARNING ACADEMY-SOUTH,PHILADELPHIA LEARNING ACADEMY SOUTH,4300 WESTMINSTER AVE,19104,(215) 400-9080,,HIGH SCHOOL,9-12,86,1,DISTRICT
453,,,3200,PHILADELPHIA LEARNING ACADEMY-NORTH EOP,PLA NORTH - HUNTING PARK EOP,4224 N FRONT ST,19140,(215) 400-9050,,HIGH SCHOOL,8-12,,1,DISTRICT
454,,,3800,PHILADELPHIA LEARNING ACADEMY-SOUTH EOP,PHILADELPHIA LEANING ACADEMY SOUTH EOP,4300 WESTMINSTER AVE,19104,(215) 400-9080,,HIGH SCHOOL,9-12,,1,DISTRICT
455,126513400,7647,3336,PHILADELPHIA PERFORMING ARTS-BROAD ST,PHILADELPHIA PERFORMING ARTS: A STRING THEORY CHARTER SCHOOL,2600 S BROAD ST,19145,(215) 551-4000,,ELEMENTARY SCHOOL,2-4,,2,CHARTER
456,126513280,7587,3322,PHILADELPHIA ACADEMY,PHILADELPHIA ACADEMY CHARTER SCHOOL,11000 ROOSEVELT BLVD,19116,(215) 676-8320,,ELEMENTARY/MIDDLE,K-8,1111,2,CHARTER
457,126515691,,3422,PHILADELPHIA CHARTER FOR ARTS,THE PHILADELPHIA CHARTER SCHOOL FOR ARTS AND SCIENCES,1197 HAWORTH ST,19124,(215) 537-2520,,ELEMENTARY/MIDDLE,K-8,1030,2,CHARTER
458,126510009,7737,3358,PHILADELPHIA ELECTRICAL AND TECHNOLOGY CHARTER SCHOOL,PHILADELPHIA ELECTRICAL AND TECHNOLOGY CHARTER SCHOOL,1420 CHESTNUT ST,19102,(267) 514-1823,,HIGH SCHOOL,9-12,602,2,CHARTER
459,126510016,7828,3378,PHILADELPHIA MONTESSORI,PHILADELPHIA MONTESSORI CHARTER SCHOOL,2227 ISLAND AVE,19142,(215) 365-4011,,ELEMENTARY SCHOOL,K-6,200,2,CHARTER
460,,,3840,PHILADELPHIA OIC WORKFORCE ACADEMY,PHILADELPHIA OIC WORKFORCE ACADEMY,1231 N BROAD ST,19122,(215) 236-7700,,HIGH SCHOOL,9-12,118,1,CONTRACTED
461,126512960,7540,3313,PREPARATORY CHARTER SCHOOL,"PREPARATORY CHARTER SCHOOL OF MATHEMATICS, SCIENCE, TECHNOLOGY AND CAREERS",1928 POINT BREEZE AVE,19145,(215) 334-6144,,HIGH SCHOOL,9-12,631,2,CHARTER
462,,,8900,RE-ENGAGEMENT CENTER,RE-ENGAGEMENT CENTER,440 N BROAD ST,19130,(215) 400-6700,,HIGH SCHOOL,9-12,,1,DISTRICT
463,126510008,7684,3359,RICHARD ALLEN PREPARATORY,RICHARD ALLEN PREPARATORY CHARTER SCHOOL,2601 S 58TH ST,19143,(215) 878-1544,,MIDDLE SCHOOL,5-8,473,2,CHARTER
464,126510001,7677,3360,RUSSELL BYERS CHARTER SCHOOL,RUSSELL BYERS CHARTER SCHOOL,1911 ARCH ST,19103,(215) 972-1700,,ELEMENTARY/MIDDLE,K-8,704,2,CHARTER
465,114514135,8083,3399,SANKOFA FREEDOM ACADEMY,SANKOFA FREEDOM ACADEMY CHARTER SCHOOL,2501 KENSINGTON AVE,19125,(215) 288-2001,,ELEMENTARY/MIDDLE/HIGH,K-12,677,2,CHARTER
466,126515001,,3880,SOUTH PHILADELPHIA HIGH SCHOOL EOP,SOUTH PHILADELPHIA HIGH SCHOOL EOP,2101 S BROAD ST,19148,(215) 400-8400,,HIGH SCHOOL,9-12,97,1,DISTRICT
467,108515107,7960,3392,SOUTHWEST LEADERSHIP ACADEMY,SOUTHWEST LEADERSHIP ACADEMY CHARTER SCHOOL,7101 PASCHALL AVE,19142,(215) 729-1939,,ELEMENTARY/MIDDLE,K-8,707,2,CHARTER
468,192518422,8126,3404,TACONY ACADEMY CHARTER SCHOOL,TACONY ACADEMY CHARTER SCHOOL,1330 RHAWN ST,19111,(215) 742-5100,,ELEMENTARY/MIDDLE/HIGH,K-12,1092,2,CHARTER
469,126511530,,3441,TECH FREIRE CHARTER SCHOOL,TECH FREIRE CHARTER SCHOOL,2221 N BROAD ST,19132,(267) 507-1111,,HIGH SCHOOL,9-12,509,2,CHARTER
470,126512674,3617,3424,UNIVERSAL ALCORN CHARTER,UNIVERSAL CHARTER SCHOOL AT ALCORN,3200 DICKINSON ST,19146,(215) 952-6219,,ELEMENTARY/MIDDLE,K-8,541,2,CHARTER
471,126519434,8195,3417,UNIVERSAL AUDENRIED CHARTER,UNIVERSAL CHARTER SCHOOL AT AUDENRIED,3301 TASKER ST,19145,(215) 952-4801,,HIGH SCHOOL,9-12,535,2,CHARTER
472,168513758,8145,3410,UNIVERSAL CHARTER @ BLUFORD,UNIVERSAL CHARTER SCHOOL AT BLUFORD,5720 MEDIA ST,19131,(215) 581-5502,,ELEMENTARY SCHOOL,K-6,531,2,CHARTER
473,103519376,8146,3411,UNIVERSAL CHARTER @ DAROFF,UNIVERSAL CHARTER SCHOOL AT DAROFF,5630 VINE ST,19139,(215) 471-2905,,ELEMENTARY/MIDDLE,K-8,732,2,CHARTER
474,126517442,8251,3421,UNIVERSAL CREIGHTON CHARTER,UNIVERSAL CHARTER SCHOOL AT CREIGHTON,5401 TABOR AVE,19120,(215) 537-2531,,ELEMENTARY/MIDDLE,K-8,741,2,CHARTER
475,126513210,7580,3326,UNIVERSAL INSTITUTE,UNIVERSAL INSTITUTE CHARTER SCHOOL,801 S 15TH ST,19146,(215) 732-2876,,ELEMENTARY/MIDDLE,K-8,653,2,CHARTER
476,126513415,8196,3418,UNIVERSAL VARE CHARTER SCHOOL,UNIVERSAL CHARTER SCHOOL AT VARE,2100 S 24TH ST,19145,(215) 952-8611,,MIDDLE SCHOOL,5-8,279,2,CHARTER
477,126513020,7548,3314,WEST OAK LANE CHARTER SCHOOL,WEST OAK LANE CHARTER SCHOOL,7115 STENTON AVE,19138,(215) 927-7995,,ELEMENTARY/MIDDLE,K-8,1041,2,CHARTER
478,126510006,7722,3357,WEST PHILADELPHIA ACHIEVEMENT,WEST PHILADELPHIA ACHIEVEMENT CHARTER SCHOOL,6701 CALLOWHILL ST,19151,(215) 476-6471,,ELEMENTARY SCHOOL,K-5,684,2,CHARTER
479,126510007,7724,3362,WISSAHICKON CHARTER SCHOOL,WISSAHICKON CHARTER SCHOOL,4700 WISSAHICKON AVE,19144,(267) 338-1020,,ELEMENTARY/MIDDLE,K-8,973,2,CHARTER
480,,,8450,YES PHILLY,YES PHILLY,2709 N BROAD ST,19122,(215) 769-0340,,HIGH SCHOOL,9-12,104,1,CONTRACTED
481,126513250,7584,3329,YOUNG SCHOLARS CHARTER SCHOOL,YOUNG SCHOLARS CHARTER SCHOOL,900 N MARSHALL ST,19123,(215) 232-9727,,MIDDLE SCHOOL,6-8,292,2,CHARTER
482,126512870,7513,3304,YOUTHBUILD PHILADELPHIA CHARTER,YOUTHBUILD PHILADELPHIA CHARTER SCHOOL,1231 N BROAD ST - 3RD FLR,19122,(215) 627-8671,,HIGH SCHOOL,12,243,2,CHARTER
483,226510039,,,63RD ST MULTICULTURAL ACADEMY OF ACADEMIC EXCELLENCE,63RD ST MULTICULTURAL ACADEMY OF ACADEMIC EXCELLENCE,5828 MARKET ST,19131,(215) 240-6721,,ELEMENTARY/MIDDLE/HIGH,PREK-12,,3,PRIVATE
484,326514508,,,CB COMMUNITY SCHOOLS,CB COMMUNITY SCHOOLS,4101 FREELAND AVE,19128,(267) 766-3130,,,9-12,,3,PRIVATE
485,226517510,,,CITY SCHOOL AT FAIRMOUNT,CITY SCHOOL AT FAIRMOUNT,860 N 24TH ST,19130,(215) 769-5363,,ELEMENTARY SCHOOL,PREK-4,,3,PRIVATE
486,326512995,,,COMMUNITY COUNCIL LEARNING ACADEMY,COMMUNITY COUNCIL LEARNING ACADEMY,4224 N FRONT ST,19140,(215) 845-2670,,ELEMENTARY/MIDDLE/HIGH,,,3,PRIVATE
487,226513837,,,CREATIVE MINDS CHRISTIAN ACADEMY,CREATIVE MINDS CHRISTIAN ACADEMY,6000 W THOMPSON ST,19151,(215) 473-4482,,,,,3,PRIVATE
488,226519494,,,KUMON MATH AND READING PHILADELPHIA,KUMON MATH AND READING PHILADELPHIA,238 N 22ND ST,19103,(215) 564-6284,,UNGRADED,UNGRADED,,3,PRIVATE
489,226511879,,,KUMON OF PHILADELPHIA- GRANT AVE,KUMON OF PHILADELPHIA- GRANT AVE,2550 GRANT AVE,19114,(215) 613-1002,,UNGRADED,UNGRADED,,3,PRIVATE
490,226515488,,,MATHNASIUM OF ANDORRA,MATHNASIUM OF ANDORRA,8500 HENRY AVE,19128,(267) 437-2388,,UNGRADED,UNGRADED,,3,PRIVATE
491,326516627,,,ONE ON ONE TUTORING SERVICE,ONE ON ONE TUTORING SERVICE,7047 GERMANTOWN AVE,19119,(215) 842-0400,,TUTORING,UNGRADED,,3,PRIVATE
492,226514088,,,ROXBOROUGH CHRISTIAN SCHOOL,ROXBOROUGH CHRISTIAN SCHOOL,6301 RIDGE AVE,19128,(215) 482-0293,,ELEMENTARY SCHOOL,K-4,,3,PRIVATE
493,326518538,,,SCHUYLKILL CENTER FOR ENVIRONMENTAL EDUCATION,SCHUYLKILL CENTER FOR ENVIRONMENTAL EDUCATION,8480 HAGYS MILL RD,19128,(215) 482-7300,,UNGRADED,UNGRADED,,3,PRIVATE
494,326510179,,,YALE SCHOOL OF PHILADELPHIA,YALE SCHOOL OF PHILADELPHIA,135 RECTOR ST,19127,(215) 839-0525,,ELEMENTARY/MIDDLE,1-8,,3,PRIVATE
495,126515001,3728,6400,WIDENER MEMORIAL SCHOOL,WIDENER MEMORIAL SCHOOL,1450 W OLNEY AVE,19141,(215) 400-3710,,ELEMENTARY/MIDDLE/HIGH,K-12,142,1,DISTRICT
496,126515001,6544,5440,"WILLARD, FRANCES E. SCHOOL",FRANCES E. WILLARD SCHOOL,1930 E ELKHART ST,19134,(215) 400-7180,,ELEMENTARY SCHOOL,K-4,673,1,DISTRICT
497,126515001,7253,8120,"WILSON, WOODROW MIDDLE SCHOOL",WOODROW WILSON SCHOOL,1800 COTTMAN AVE,19111,(215) 400-3190,,MIDDLE SCHOOL,6-8,1421,1,DISTRICT
498,126515001,,4470,"WRIGHT, RICHARD R. SCHOOL",RICHARD R. WRIGHT SCHOOL,2700 W DAUPHIN ST,19132,(215) 400-7030,,ELEMENTARY SCHOOL,K-5,351,1,DISTRICT
499,126515001,7233,7460,"ZIEGLER, WILLIAM H. SCHOOL",WILLIAM H. ZIEGLER SCHOOL,5935 SAUL ST,19149,(215) 400-3260,,ELEMENTARY/MIDDLE,K-8,547,1,DISTRICT
500,126510015,7825,3379,AD PRIMA CHARTER SCHOOL,AD PRIMA CHARTER SCHOOL,1922 N 63RD ST,19151,(267) 403-2672,,ELEMENTARY/MIDDLE,K-8,693,2,CHARTER
501,126512990,7543,3315,ALLIANCE FOR PROGRESS CHARTER,ALLIANCE FOR PROGRESS CHARTER SCHOOL,1821 N CECIL B MOORE AVE,19121,(215) 232-4892,,ELEMENTARY/MIDDLE,K-8,522,2,CHARTER
502,104510394,8031,3395,ANTONIA PANTOJA CHARTER SCHOOL,ANTONIA PANTOJA CHARTER SCHOOL,4101 N AMERICAN ST,19140,(215) 329-2733,,ELEMENTARY/MIDDLE,K-8,719,2,CHARTER
503,126513190,7578,3317,ARCHITECTURE & DESIGN CHARTER,ARCHITECTURE AND DESIGN CHARTER SCHOOL,105 S 7TH ST,19106,(215) 351-2900,,HIGH SCHOOL,9-12,554,2,CHARTER
504,133513315,8149,3406,ASPIRA CHARTER @ STETSON,ASPIRA CHARTER SCHOOL AT STETSON,3200 B ST,19134,(215) 291-4720,,MIDDLE SCHOOL,5-8,887,2,CHARTER
505,126513452,8205,3414,ASPIRA OLNEY CHARTER HIGH,ASPIRA CHARTER SCHOOL AT OLNEY,100 W DUNCANNON AVE,19120,(215) 456-3014,,HIGH SCHOOL,9-12,1989,2,CHARTER
506,126510010,7750,3368,BELMONT ELEMENTARY CHARTER,BELMONT CHARTER SCHOOL,4030 BROWN ST,19104,(215) 823-8208,,ELEMENTARY/MIDDLE,K-11,964,2,CHARTER
507,185515523,7981,3388,BOYS LATIN OF PHILADELPHIA CHARTER,BOYS LATIN OF PHILADELPHIA CHARTER SCHOOL,5501 CEDAR AVE,19143,(215) 387-5149,,MIDDLE/HIGH,6-12,836,2,CHARTER
508,,,2310,CAMELOT ACADEMY,CAMELOT ACADEMY,1435 N 26TH ST,19121,(215) 684-5080,,MIDDLE/HIGH,6-12,78,1,CONTRACTED
509,,8120,3820,CAMELOT ACADEMY EAST,CAMELOT ACADEMY EAST,4224 N FRONT ST,19140,(267) 335-4764,,MIDDLE/HIGH,7-12,58,1,CONTRACTED
510,126513160,7575,3306,CHRISTOPHER COLUMBUS CHARTER,CHRISTOPHER COLUMBUS CHARTER SCHOOL,916 CHRISTIAN ST,19147,(215) 925-7400,,ELEMENTARY/MIDDLE,K-4,952,2,CHARTER
511,126512840,7510,3301,COMMUNITY ACADEMY OF PHILADELPHIA,COMMUNITY ACADEMY OF PHILADELPHIA CHARTER SCHOOL,1100 E ERIE AVE,19124,(215) 533-6700,,ELEMENTARY/MIDDLE/HIGH,K-12,1228,2,CHARTER
512,,,3190,CROSSROADS @ HUNTING PARK,CROSSROADS AT HUNTING PARK,4224 N FRONT ST,19140,(215) 400-9060,,ELEMENTARY SCHOOL,3-6,34,1,DISTRICT
513,,,8690,CROSSROADS ACCELERATED ACADEMY,CROSSROADS ACCELERATED ACADEMY,4300 WESTMINSTER AVE,19104,(215) 400-9070,,MIDDLE SCHOOL,7-10,105,1,DISTRICT
514,126513100,7564,3307,DE HOSTOS CHARTER SCHOOL,EUGENIO MARIA DE HOSTOS CHARTER SCHOOL,6301 N 2ND ST,19120,(215) 324-7012,,ELEMENTARY/MIDDLE,K-8,521,2,CHARTER
515,126510011,7775,3372,DISCOVERY CHARTER SCHOOL,DISCOVERY CHARTER SCHOOL,4700 PARKSIDE AVE,19131,(215) 879-8182,,ELEMENTARY/MIDDLE,K-8,595,2,CHARTER
516,126518547,8150,3412,DOUGLASS MASTERY CHARTER,MASTERY CHARTER SCHOOL AT DOUGLASS,2118 W NORRIS ST,19121,(215) 684-5063,,ELEMENTARY/MIDDLE,K-8,679,2,CHARTER
517,,,3510,EL CENTRO DE ESTUDIANTES,EL CENTRO DE ESTUDIANTES (BIG PICTURE),4290 PENN ST,19124,(267) 687-1172,,HIGH SCHOOL,9-12,231,1,CONTRACTED
518,126513440,7665,3333,ESPERANZA ACADEMY CHARTER,ESPERANZA ACADEMY CHARTER SCHOOL,301 W HUNTING PARK AVE,19140,(215) 457-3667,,ELEMENTARY/MIDDLE/HIGH,K-12,1630,2,CHARTER
519,,,8080,EXCEL ACADEMY NORTH,EXCEL ACADEMY NORTH,1435 N 26TH ST,19121,(215) 684-5080,,HIGH SCHOOL,9-12,143,1,CONTRACTED
520,,,3290,EXCEL ACADEMY SOUTH,EXCEL ACADEMY SOUTH,4641 ROOSEVELT BLVD,19124,(215) 904-6254,,HIGH SCHOOL,9-12,378,1,CONTRACTED
521,126517286,8151,3409,MASTERY CHARTER @ SMEDLEY,MASTERY CHARTER SCHOOL AT SMEDLEY,1790 BRIDGE ST,19124,(215) 537-2523,,ELEMENTARY SCHOOL,K-6,795,2,CHARTER
522,126518118,3731,3427,MASTERY CHARTER @ WISTER,MASTERY CHARTER SCHOOL AT WISTER,67 E BRINGHURST ST,19144,(215) 951-4003,,ELEMENTARY SCHOOL,K-5,522,2,CHARTER
523,126510002,7678,3361,MASTERY CHARTER-LENFEST CAMPUS,MASTERY CHARTER SCHOOL AT LENFEST,35 S 4TH ST,19106,(215) 922-1902,,MIDDLE/HIGH,7-12,581,2,CHARTER
524,126510022,7909,3383,MASTERY CHARTER-SHOEMAKER,MASTERY CHARTER SCHOOL AT SHOEMAKER,5301 MEDIA ST,19131,(267) 296-7111,,MIDDLE/HIGH,7-12,740,2,CHARTER
525,126510023,7910,3385,MASTERY CHARTER-THOMAS CAMPUS,MASTERY CHARTER SCHOOL AT THOMAS CAMPUS,927 JOHNSTON ST,19148,(267) 236-0036,,ELEMENTARY/MIDDLE/HIGH,K-12,1313,2,CHARTER
526,126513230,7582,3321,"MATH, CIVICS AND SCIENCES","MATH, CIVICS AND SCIENCES CHARTER SCHOOL",447 N BROAD ST,19123,(215) 923-4880,,ELEMENTARY/MIDDLE/HIGH,1-12,1016,2,CHARTER
527,126515001,,,ONE BRIGHT RAY MANSION,ONE BRIGHT RAY MANSION,3133 RIDGE AVE,19132,(215) 999-3110,O,HIGH SCHOOL,9-12,183,1,CONTRACTED
528,126515001,,,ONE BRIGHT RAY MANSION EVENING,ONE BRIGHT RAY MANSION EVENING,3133 RIDGE AVE,19132,(215) 999-3110,O,HIGH SCHOOL,9-12,21,1,CONTRACTED
529,126516724,,,DEEP ROOTS CHARTER SCHOOL,DEEP ROOTS CHARTER SCHOOL,3556 FRANKFORD AVE,19134,(267) 399-3727,O,ELEMENTARY SCHOOL,K-5,324,2,CHARTER
530,126517643,,,MASTERY PREP ELEMENTARY CHARTER SCHOOL,MASTERY PREP ELEMENTARY CHARTER SCHOOL,1801 W PIKE ST,19140,(215) 866-0067,O,ELEMENTARY SCHOOL,K-3,329,2,CHARTER
531,126515492,,,KIPP WEST PHILADELPHIA CHARTER SCHOOL,KIPP WEST PHILADELPHIA CHARTER SCHOOL,5070 PARKSIDE AVE,19131,(267) 787-5700,,ELEMENTARY SCHOOL,K-3,395,2,CHARTER
532,326512392,,,BEANSTALK LLC,BEANSTALK LLC,729 E PASSYUNK AVE,19147,(215) 278-2960,,KINDERGARTEN,PREK-K,,3,PRIVATE
533,326514352,,,MERAKEY EDUCATION CENTER- PHILA,MERAKEY EDUCATION CENTER- PHILA,2343 E TUCKER ST,19125,(215) 423-0390,,SPECIAL CENTER,,,3,PRIVATE
534,226518471,,,PHILLY AGILE LEARNING COMMUNITY SCHOOL,PHILLY AGILE LEARNING COMMUNITY SCHOOL,2125 CHESTNUT ST,19103,(215) 760-5782,,ELEMENTARY/MIDDLE/HIGH,K-12,,3,
535,226513821,,,VOCATIO CAREER PREP HIGH SCHOOL,VOCATIO CAREER PREP HIGH SCHOOL,629-33 W HUNTING PARK AVE,19140,(215) 821-2283,,HIGH SCHOOL,9-12,,3,PRIVATE
536,126514059,,3437,KIPP NORTH PHILADELPHIA CHARTER SCHOOL,KIPP NORTH PHILADELPHIA CHARTER SCHOOL,2539 N. 16TH ST.,19132,(267) 758-2358,,ELEMENTARY SCHOOL,K-2,295,2,CHARTER
537,126511624,3445,,MAST III CHARTER SCHOOL,MAST III CHARTER SCHOOL,1 CROWN WAY,19154,(267) 574-9855,,ELEMENTARY SCHOOL,K-5,888,2,CHARTER
538,126510929,3446,,PHILADELPHIA HEBREW CHARTER,PHILADELPHIA HEBREW CHARTER,3300 HENRY AVE,19129,(267) 225-1511,,ELEMENTARY SCHOOL,K-1,156,2,CHARTER
539,,,,PHILADELPHIA PERFORMING ARTS CHARTER: STRING THEORY (E. CAMPUS),PHILADELPHIA PERFORMING ARTS CHARTER: STRING THEORY (E. CAMPUS),2407 S BROAD ST,19148,(215) 278-2460,,ELEMENTARY SCHOOL,K-1,,2,CHARTER
540,326510173,,,EXCELSIOR SCHOOL OF PHILADELPHIA,EXCELSIOR SCHOOL OF PHILADELPHIA,2106 HAINES ST,19138,(267) 707-6142,,ELEMENTARY SCHOOL,PREK-5,,3,PRIVATE
541,226511816,,,KINGDOM CHRISTIAN ACADEMY AND DEVELOPMENT CENTER,KINGDOM CHRISTIAN ACADEMY AND DEVELOPMENT CENTER,2852 Frankford Ave,19134,(215) 251-6109,,ELEMENTARY SCHOOL,K-3,,3,PRIVATE
542,326517786,,,QUADRAT ACADEMY,QUADRAT ACADEMY,222 BROWN ST,19123,(267) 997-7744,,MIDDLE/HIGH,7-12,,3,PRIVATE
543,326513292,,,REVOLUTION SCHOOL,REVOLUTION SCHOOL,3033 W GLENWOOD AVE,19121,(215) 631-3697,,HIGH SCHOOL,9-12,,3,PRIVATE
544,226517319,,,SOPHIA ACADEMY,SOPHIA ACADEMY,4621 N 5TH ST,19140,(267) 595-4723,,HIGH SCHOOL,9-12,,3,PRIVATE
